{
  "type": "FeatureCollection",
  "features": [
    {
      "type": "Feature",
      "properties": {
        "Name": "Greco-Bactrian Kingdom",
        "FromYear": -144,
        "ToYear": -127,
        "Area": 1099128.8595625437,
        "Type": "POLITY",
        "Wikipedia": "Greco-Bactrian Kingdom",
        "Wikidata": "Q488880",
        "SeshatID": "af_greco_bactrian_k",
        "Components": "",
        "MemberOf": ""
      },
      "geometry": {
        "type": "MultiPolygon",
        "coordinates": [
          [
            [
              [
                67.63790130615234,
                33.84315490722656
              ],
              [
                67.5610580444336,
                33.84315490722656
              ],
              [
                67.57521057128906,
                33.90746307373047
              ],
              [
                67.6520767211914,
                33.90746307373047
              ],
              [
                67.63790130615234,
                33.84315490722656
              ]
            ]
          ],
          [
            [
              [
                73.86797332763672,
                39.51427459716797
              ],
              [
                73.6902847290039,
                39.449623107910156
              ],
              [
                73.63028717041016,
                39.25570297241211
              ],
              [
                73.7479019165039,
                39.1264533996582
              ],
              [
                73.49423217773438,
                38.54513168334961
              ],
              [
                72.98930358886719,
                38.157840728759766
              ],
              [
                71.88554382324219,
                36.9970588684082
              ],
              [
                71.89447021484375,
                36.73930740356445
              ],
              [
                71.70489501953125,
                36.61045455932617
              ],
              [
                71.67105865478516,
                36.48161697387695
              ],
              [
                71.74873352050781,
                36.48161697387695
              ],
              [
                71.62068939208984,
                36.28839111328125
              ],
              [
                71.69830322265625,
                36.28839111328125
              ],
              [
                71.63176727294922,
                36.03080368041992
              ],
              [
                71.70929718017578,
                36.03080368041992
              ],
              [
                71.72090911865234,
                35.77327346801758
              ],
              [
                71.85939025878906,
                35.708900451660156
              ],
              [
                71.82672882080078,
                35.58015823364258
              ],
              [
                72.02627563476562,
                35.45143127441406
              ],
              [
                71.99385833740234,
                35.32271194458008
              ],
              [
                72.11613464355469,
                35.194007873535156
              ],
              [
                72.74662017822266,
                34.93662643432617
              ],
              [
                72.7916030883789,
                34.80794906616211
              ],
              [
                72.94587707519531,
                34.80794906616211
              ],
              [
                72.99087524414062,
                34.679283142089844
              ],
              [
                73.2831802368164,
                34.614952087402344
              ],
              [
                73.46625518798828,
                34.42197799682617
              ],
              [
                73.92835235595703,
                34.42197799682617
              ],
              [
                73.896240234375,
                34.2933349609375
              ],
              [
                74.03417205810547,
                34.22901916503906
              ],
              [
                75.5406494140625,
                34.10039138793945
              ],
              [
                75.68698120117188,
                33.45735549926758
              ],
              [
                75.82453918457031,
                33.393062591552734
              ],
              [
                75.94432830810547,
                32.94303894042969
              ],
              [
                76.09748840332031,
                32.94303894042969
              ],
              [
                76.06634521484375,
                32.81447219848633
              ],
              [
                76.14289093017578,
                32.81447219848633
              ],
              [
                76.08113098144531,
                32.557350158691406
              ],
              [
                76.46338653564453,
                32.23596954345703
              ],
              [
                78.4480209350586,
                31.593257904052734
              ],
              [
                78.84430694580078,
                31.65752601623535
              ],
              [
                78.84478759765625,
                31.336183547973633
              ],
              [
                79.17961883544922,
                31.464719772338867
              ],
              [
                79.42373657226562,
                31.20764923095703
              ],
              [
                79.40872955322266,
                31.143381118774414
              ],
              [
                77.9357681274414,
                29.986536026000977
              ],
              [
                77.85477447509766,
                29.600887298583984
              ],
              [
                77.93048858642578,
                29.600887298583984
              ],
              [
                77.87759399414062,
                29.34377670288086
              ],
              [
                77.98974609375,
                29.150936126708984
              ],
              [
                77.96475219726562,
                28.25096321105957
              ],
              [
                78.0401611328125,
                28.25096321105957
              ],
              [
                78.05523681640625,
                27.92952537536621
              ],
              [
                78.04334259033203,
                27.865236282348633
              ],
              [
                78.02202606201172,
                26.900876998901367
              ],
              [
                77.68878173828125,
                26.70800018310547
              ],
              [
                77.15240478515625,
                26.643707275390625
              ],
              [
                76.65884399414062,
                26.836584091186523
              ],
              [
                76.46590423583984,
                27.029460906982422
              ],
              [
                76.48779296875,
                27.158044815063477
              ],
              [
                76.28427124023438,
                27.2866268157959
              ],
              [
                76.30652618408203,
                27.41520881652832
              ],
              [
                76.114501953125,
                27.608078002929688
              ],
              [
                76.20112609863281,
                27.6723690032959
              ],
              [
                76.2067642211914,
                28.12238883972168
              ],
              [
                75.73809051513672,
                28.44382095336914
              ],
              [
                75.72295379638672,
                28.765243530273438
              ],
              [
                75.49474334716797,
                29.150936126708984
              ],
              [
                75.00418090820312,
                28.958093643188477
              ],
              [
                74.81671905517578,
                28.765243530273438
              ],
              [
                73.35357666015625,
                28.186676025390625
              ],
              [
                70.71566009521484,
                27.736658096313477
              ],
              [
                70.73670196533203,
                27.865236282348633
              ],
              [
                70.54254150390625,
                28.058101654052734
              ],
              [
                70.0692367553711,
                27.92952537536621
              ],
              [
                69.9068832397461,
                28.315250396728516
              ],
              [
                69.45436096191406,
                28.315250396728516
              ],
              [
                68.72148895263672,
                28.893810272216797
              ],
              [
                67.124267578125,
                29.279497146606445
              ],
              [
                67.01708221435547,
                29.536611557006836
              ],
              [
                66.56549835205078,
                29.986536026000977
              ],
              [
                66.54940795898438,
                31.143381118774414
              ],
              [
                67.23277282714844,
                31.91460609436035
              ],
              [
                67.39825439453125,
                31.978878021240234
              ],
              [
                67.34783935546875,
                32.107421875
              ],
              [
                67.50053405761719,
                32.107421875
              ],
              [
                67.6294174194336,
                32.36451721191406
              ],
              [
                67.7955322265625,
                32.428794860839844
              ],
              [
                67.93914794921875,
                32.75019073486328
              ],
              [
                68.3905258178711,
                33.07160949707031
              ],
              [
                68.55121612548828,
                33.45735549926758
              ],
              [
                68.4744873046875,
                33.45735549926758
              ],
              [
                68.51705169677734,
                33.65024948120117
              ],
              [
                67.79158782958984,
                33.84315490722656
              ],
              [
                67.66629028320312,
                33.971771240234375
              ],
              [
                67.49835205078125,
                33.90746307373047
              ],
              [
                67.38717651367188,
                34.10039138793945
              ],
              [
                66.98844909667969,
                34.03607940673828
              ],
              [
                66.96822357177734,
                34.2933349609375
              ],
              [
                66.75150299072266,
                34.3576545715332
              ],
              [
                66.78004455566406,
                34.48630142211914
              ],
              [
                66.70301055908203,
                34.48630142211914
              ],
              [
                66.32655334472656,
                34.87228775024414
              ],
              [
                66.33645629882812,
                35.258358001708984
              ],
              [
                65.63630676269531,
                35.58015823364258
              ],
              [
                65.61769104003906,
                35.837650299072266
              ],
              [
                65.54022979736328,
                35.837650299072266
              ],
              [
                65.59960174560547,
                36.09519577026367
              ],
              [
                65.44450378417969,
                36.09519577026367
              ],
              [
                65.47437286376953,
                36.2239875793457
              ],
              [
                65.39678192138672,
                36.2239875793457
              ],
              [
                65.58035278320312,
                36.67487716674805
              ],
              [
                65.39306640625,
                36.8681755065918
              ],
              [
                65.4706039428711,
                37.1904182434082
              ],
              [
                65.72144317626953,
                37.5772590637207
              ],
              [
                65.2090072631836,
                38.028785705566406
              ],
              [
                65.15045166015625,
                38.416015625
              ],
              [
                65.07209777832031,
                38.416015625
              ],
              [
                65.15513610839844,
                38.738853454589844
              ],
              [
                65.07666015625,
                38.738853454589844
              ],
              [
                65.1440658569336,
                38.997230529785156
              ],
              [
                65.06549835205078,
                38.997230529785156
              ],
              [
                65.2818832397461,
                39.51427459716797
              ],
              [
                65.20310974121094,
                39.51427459716797
              ],
              [
                65.25577545166016,
                39.70827102661133
              ],
              [
                65.27346801757812,
                39.77294921875
              ],
              [
                65.56378936767578,
                39.9670295715332
              ],
              [
                65.84974670410156,
                40.42012023925781
              ],
              [
                66.8518295288086,
                41.132843017578125
              ],
              [
                67.98379516601562,
                41.19768524169922
              ],
              [
                68.14250946044922,
                40.93837356567383
              ],
              [
                68.08345031738281,
                40.74397277832031
              ],
              [
                68.73767852783203,
                40.54964065551758
              ],
              [
                69.0953598022461,
                40.16116714477539
              ],
              [
                69.8066177368164,
                40.16116714477539
              ],
              [
                70.28125,
                40.42012023925781
              ],
              [
                70.43951416015625,
                40.42012023925781
              ],
              [
                70.6167984008789,
                40.225894927978516
              ],
              [
                71.50665283203125,
                40.29063034057617
              ],
              [
                71.7823257446289,
                40.16116714477539
              ],
              [
                72.45947265625,
                40.54964065551758
              ],
              [
                73.15658569335938,
                40.74397277832031
              ],
              [
                73.33053588867188,
                40.54964065551758
              ],
              [
                73.48890686035156,
                40.54964065551758
              ],
              [
                73.5257339477539,
                40.42012023925781
              ],
              [
                73.68400573730469,
                40.42012023925781
              ],
              [
                73.93253326416016,
                39.9670295715332
              ],
              [
                73.91181945800781,
                39.90232849121094
              ],
              [
                73.86797332763672,
                39.51427459716797
              ]
            ]
          ],
          [
            [
              [
                60.87348175048828,
                37.1904182434082
              ],
              [
                60.887821197509766,
                37.254878997802734
              ],
              [
                60.96575927734375,
                37.254878997802734
              ],
              [
                60.95139694213867,
                37.1904182434082
              ],
              [
                60.87348175048828,
                37.1904182434082
              ]
            ]
          ]
        ]
      }
    }
  ]
}