{"type": "FeatureCollection", "name": "Indo-Scythians c. 30 CE", "features": [{"type": "Feature", "properties": {"Name": "Indo-Scythians", "FromYear": 14, "ToYear": 42, "Area": 905632.5673340189, "Type": "POLITY", "Wikipedia": "Indo-Scythians", "Wikidata": "Q240123", "SeshatID": "", "Components": "", "MemberOf": ""}, "geometry": {"type": "MultiPolygon", "coordinates": [[[[76.11190795898438, 32.685909271240234], [76.08113098144531, 32.557350158691406], [76.5397720336914, 32.23596954345703], [76.47938537597656, 31.978878021240234], [76.1617660522461, 31.593257904052734], [75.33389282226562, 30.950578689575195], [74.44287109375, 30.69350814819336], [73.8350601196289, 30.69350814819336], [73.80835723876953, 30.564971923828125], [74.37308502197266, 29.986536026000977], [74.30904388427734, 29.665164947509766], [74.46049499511719, 29.665164947509766], [74.76345825195312, 29.279497146606445], [75.05352783203125, 29.21521759033203], [75.09201049804688, 29.022375106811523], [75.6596450805664, 28.829526901245117], [75.69866180419922, 28.636676788330078], [76.2662353515625, 28.44382095336914], [76.31769561767578, 28.315250396728516], [76.74629974365234, 28.186676025390625], [76.79796600341797, 28.058101654052734], [77.3890151977539, 27.993812561035156], [77.44073486328125, 27.865236282348633], [77.73025512695312, 27.800947189331055], [77.84578704833984, 27.608078002929688], [78.12367248535156, 27.4794979095459], [78.14181518554688, 27.158044815063477], [78.26969146728516, 27.029460906982422], [78.25704956054688, 26.515121459960938], [78.33210754394531, 26.515121459960938], [78.32389068603516, 25.03639030456543], [78.31441497802734, 24.97209930419922], [78.22086334228516, 24.843517303466797], [77.84703063964844, 24.843517303466797], [77.29630279541016, 24.650644302368164], [76.7115249633789, 24.200613021850586], [76.02253723144531, 24.07203483581543], [74.59017181396484, 23.36486053466797], [74.0291976928711, 22.400548934936523], [73.55363464355469, 22.143402099609375], [73.21324920654297, 21.7576847076416], [72.76029968261719, 21.693397521972656], [72.68598937988281, 21.693397521972656], [72.54438781738281, 21.7576847076416], [72.5655288696289, 21.950544357299805], [72.4911880493164, 21.950544357299805], [72.52674865722656, 22.271976470947266], [72.37797546386719, 22.271976470947266], [72.34249877929688, 21.950544357299805], [72.11245727539062, 21.88625717163086], [72.17279815673828, 21.7576847076416], [72.3214340209961, 21.7576847076416], [72.18476104736328, 21.179107666015625], [71.4084701538086, 20.857677459716797], [71.32078552246094, 20.72910499572754], [70.72064208984375, 20.664819717407227], [70.29546356201172, 20.857677459716797], [69.88987731933594, 21.24339485168457], [69.90315246582031, 21.371967315673828], [69.49736022949219, 21.7576847076416], [69.34872436523438, 21.7576847076416], [68.94945526123047, 22.20768928527832], [68.97650909423828, 22.46483612060547], [69.40931701660156, 22.33626365661621], [69.49740600585938, 22.46483612060547], [69.86946868896484, 22.46483612060547], [70.26250457763672, 22.657697677612305], [70.36528778076172, 22.914846420288086], [69.45060729980469, 22.72198486328125], [69.09920501708984, 22.914846420288086], [69.02472686767578, 22.914846420288086], [69.03872680664062, 23.043420791625977], [69.49991607666016, 23.171995162963867], [70.06529235839844, 23.557723999023438], [70.42416381835938, 24.07203483581543], [70.44752502441406, 24.264904022216797], [70.6047592163086, 24.329193115234375], [70.63658142089844, 25.164974212646484], [70.43775939941406, 25.357851028442383], [70.34053802490234, 25.743606567382812], [70.19070434570312, 25.743606567382812], [70.17903137207031, 26.19365882873535], [69.70967864990234, 26.57941436767578], [69.72862243652344, 26.70800018310547], [69.51284790039062, 26.772293090820312], [69.56114196777344, 27.093751907348633], [70.00714874267578, 27.54378890991211], [70.21991729736328, 27.92952537536621], [70.63939666748047, 28.186676025390625], [71.0182113647461, 28.636676788330078], [71.169189453125, 28.636676788330078], [72.02869415283203, 29.21521759033203], [72.32793426513672, 29.600887298583984], [72.45285034179688, 30.243623733520508], [72.37698364257812, 30.243623733520508], [72.44136047363281, 31.65752601623535], [72.99314880371094, 32.428794860839844], [73.16059875488281, 32.493072509765625], [73.58538818359375, 33.00732421875], [73.6619873046875, 33.00732421875], [73.98356628417969, 33.07160949707031], [74.1829833984375, 32.94303894042969], [74.35137176513672, 33.00732421875], [75.46939849853516, 32.878753662109375], [75.88238525390625, 32.685909271240234], [76.12737274169922, 32.75019073486328], [76.11190795898438, 32.685909271240234]]], [[[69.88106536865234, 33.90746307373047], [69.34303283691406, 33.90746307373047], [67.7095718383789, 32.75019073486328], [67.65596008300781, 32.493072509765625], [67.0674057006836, 31.8503360748291], [66.77767944335938, 31.143381118774414], [66.43708038330078, 30.950578689575195], [66.3155746459961, 29.857990264892578], [66.0771255493164, 29.79371452331543], [65.12470245361328, 29.536611557006836], [64.52979278564453, 29.600887298583984], [64.11966705322266, 29.40805435180664], [62.3036994934082, 29.40805435180664], [60.93583679199219, 29.857990264892578], [61.87461853027344, 30.950578689575195], [61.941524505615234, 31.336183547973633], [62.42121505737305, 31.464719772338867], [62.81953811645508, 31.978878021240234], [63.16080093383789, 32.171695709228516], [63.185020446777344, 32.30024337768555], [63.426448822021484, 32.36451721191406], [63.872615814208984, 33.84315490722656], [64.3238754272461, 34.164703369140625], [64.57353210449219, 34.614952087402344], [65.09204864501953, 34.87228775024414], [65.41487121582031, 34.93662643432617], [65.61793518066406, 34.80794906616211], [65.92647552490234, 34.80794906616211], [66.06645965576172, 34.743614196777344], [66.0379867553711, 34.614952087402344], [66.68873596191406, 34.42197799682617], [66.81427001953125, 34.2933349609375], [69.73943328857422, 34.2933349609375], [69.98755645751953, 34.03607940673828], [69.88106536865234, 33.90746307373047]]], [[[74.19817352294922, 33.00732421875], [74.21341705322266, 33.07160949707031], [74.29003143310547, 33.07160949707031], [74.27477264404297, 33.00732421875], [74.19817352294922, 33.00732421875]]]]}}]}