{
  "type": "FeatureCollection",
  "features": [
    {
      "type": "Feature",
      "properties": {
        "Name": "Indo-Parthians",
        "FromYear": 14,
        "ToYear": 42,
        "Area": 487435.19552444597,
        "Type": "POLITY",
        "Wikipedia": "Indo-Parthian Kingdom",
        "Wikidata": "Q1255614",
        "SeshatID": "pk_indo_parthian_k",
        "Components": "",
        "MemberOf": ""
      },
      "geometry": {
        "type": "Polygon",
        "coordinates": [
          [
            [
              68.95024871826172,
              22.914846420288086
            ],
            [
              68.60577392578125,
              23.171995162963867
            ],
            [
              68.55245971679688,
              23.36486053466797
            ],
            [
              68.3359375,
              23.429147720336914
            ],
            [
              68.35022735595703,
              23.557723999023438
            ],
            [
              68.12652587890625,
              23.557723999023438
            ],
            [
              68.15538787841797,
              23.814878463745117
            ],
            [
              67.63314819335938,
              23.814878463745117
            ],
            [
              67.49114990234375,
              23.879167556762695
            ],
            [
              67.43836975097656,
              24.07203483581543
            ],
            [
              67.28907775878906,
              24.07203483581543
            ],
            [
              67.32612609863281,
              24.393482208251953
            ],
            [
              67.14765930175781,
              24.779226303100586
            ],
            [
              66.63204956054688,
              24.843517303466797
            ],
            [
              66.63977813720703,
              24.907808303833008
            ],
            [
              67.1120834350586,
              25.100683212280273
            ],
            [
              67.50210571289062,
              25.807899475097656
            ],
            [
              67.19660949707031,
              26.32224464416504
            ],
            [
              67.17454528808594,
              27.222335815429688
            ],
            [
              67.06233215332031,
              27.4794979095459
            ],
            [
              67.12104034423828,
              27.865236282348633
            ],
            [
              67.04571533203125,
              27.865236282348633
            ],
            [
              67.04087829589844,
              28.315250396728516
            ],
            [
              66.9654541015625,
              28.315250396728516
            ],
            [
              67.0067367553711,
              28.572391510009766
            ],
            [
              66.93125915527344,
              28.572391510009766
            ],
            [
              67.13524627685547,
              29.34377670288086
            ],
            [
              66.99494171142578,
              29.40805435180664
            ],
            [
              66.8879623413086,
              29.665164947509766
            ],
            [
              66.4336166381836,
              29.665164947509766
            ],
            [
              66.0771255493164,
              29.79371452331543
            ],
            [
              66.3155746459961,
              29.857990264892578
            ],
            [
              66.43708038330078,
              30.950578689575195
            ],
            [
              66.77767944335938,
              31.143381118774414
            ],
            [
              67.0674057006836,
              31.8503360748291
            ],
            [
              67.65596008300781,
              32.493072509765625
            ],
            [
              67.7095718383789,
              32.75019073486328
            ],
            [
              69.34303283691406,
              33.90746307373047
            ],
            [
              69.88106536865234,
              33.90746307373047
            ],
            [
              69.98755645751953,
              34.03607940673828
            ],
            [
              70.72654724121094,
              33.90746307373047
            ],
            [
              70.83346557617188,
              34.03607940673828
            ],
            [
              70.77163696289062,
              34.10039138793945
            ],
            [
              70.9558334350586,
              34.22901916503906
            ],
            [
              71.47920227050781,
              34.164703369140625
            ],
            [
              71.55614471435547,
              34.164703369140625
            ],
            [
              72.58761596679688,
              34.2933349609375
            ],
            [
              72.85011291503906,
              34.42197799682617
            ],
            [
              73.38923645019531,
              34.42197799682617
            ],
            [
              73.35548400878906,
              33.971771240234375
            ],
            [
              73.52361297607422,
              33.71455001831055
            ],
            [
              73.52386474609375,
              33.07160949707031
            ],
            [
              73.60047912597656,
              33.07160949707031
            ],
            [
              73.58538818359375,
              33.00732421875
            ],
            [
              73.16059875488281,
              32.493072509765625
            ],
            [
              72.99314880371094,
              32.428794860839844
            ],
            [
              72.44136047363281,
              31.65752601623535
            ],
            [
              72.37698364257812,
              30.243623733520508
            ],
            [
              72.45285034179688,
              30.243623733520508
            ],
            [
              72.32793426513672,
              29.600887298583984
            ],
            [
              72.02869415283203,
              29.21521759033203
            ],
            [
              71.169189453125,
              28.636676788330078
            ],
            [
              71.0182113647461,
              28.636676788330078
            ],
            [
              70.63939666748047,
              28.186676025390625
            ],
            [
              70.21991729736328,
              27.92952537536621
            ],
            [
              70.00714874267578,
              27.54378890991211
            ],
            [
              69.56114196777344,
              27.093751907348633
            ],
            [
              69.51284790039062,
              26.772293090820312
            ],
            [
              69.72862243652344,
              26.70800018310547
            ],
            [
              69.70967864990234,
              26.57941436767578
            ],
            [
              70.17903137207031,
              26.19365882873535
            ],
            [
              70.19070434570312,
              25.743606567382812
            ],
            [
              70.34053802490234,
              25.743606567382812
            ],
            [
              70.43775939941406,
              25.357851028442383
            ],
            [
              70.63658142089844,
              25.164974212646484
            ],
            [
              70.6047592163086,
              24.329193115234375
            ],
            [
              70.44752502441406,
              24.264904022216797
            ],
            [
              70.42416381835938,
              24.07203483581543
            ],
            [
              70.06529235839844,
              23.557723999023438
            ],
            [
              69.49991607666016,
              23.171995162963867
            ],
            [
              69.03872680664062,
              23.043420791625977
            ],
            [
              69.02472686767578,
              22.914846420288086
            ],
            [
              68.95024871826172,
              22.914846420288086
            ]
          ]
        ]
      }
    }
  ]
}