{
  "type": "FeatureCollection",
  "features": [
    {
      "type": "Feature",
      "properties": {
        "Name": "Kushan Empire",
        "FromYear": 51,
        "ToYear": 90,
        "Area": 638996.4164184526,
        "Type": "POLITY",
        "Wikipedia": "Kushan Empire",
        "Wikidata": "Q25979",
        "SeshatID": "af_kushan_emp",
        "Components": "",
        "MemberOf": ""
      },
      "geometry": {
        "type": "Polygon",
        "coordinates": [
          [
            [
              71.97811126708984,
              41.26253128051758
            ],
            [
              72.1370849609375,
              41.26253128051758
            ],
            [
              72.23180389404297,
              41.06801223754883
            ],
            [
              72.47001647949219,
              41.06801223754883
            ],
            [
              72.72342681884766,
              40.873565673828125
            ],
            [
              73.04071044921875,
              40.873565673828125
            ],
            [
              73.13530731201172,
              40.6791877746582
            ],
            [
              73.29378509521484,
              40.6791877746582
            ],
            [
              73.33053588867188,
              40.54964065551758
            ],
            [
              73.48890686035156,
              40.54964065551758
            ],
            [
              73.5257339477539,
              40.42012023925781
            ],
            [
              73.80000305175781,
              40.29063034057617
            ],
            [
              73.57305908203125,
              39.57893371582031
            ],
            [
              73.39533996582031,
              39.51427459716797
            ],
            [
              73.6902847290039,
              39.449623107910156
            ],
            [
              73.63028717041016,
              39.25570297241211
            ],
            [
              73.7479019165039,
              39.1264533996582
            ],
            [
              73.49423217773438,
              38.54513168334961
            ],
            [
              72.66254425048828,
              37.835243225097656
            ],
            [
              72.398193359375,
              37.44829177856445
            ],
            [
              71.82501983642578,
              37.06150817871094
            ],
            [
              71.66118621826172,
              36.73930740356445
            ],
            [
              71.249267578125,
              36.3527946472168
            ],
            [
              71.244140625,
              36.03080368041992
            ],
            [
              71.6719741821289,
              35.58015823364258
            ],
            [
              71.60481262207031,
              35.00096893310547
            ],
            [
              71.94309997558594,
              34.80794906616211
            ],
            [
              71.49454498291016,
              34.22901916503906
            ],
            [
              71.47920227050781,
              34.164703369140625
            ],
            [
              71.09451293945312,
              34.164703369140625
            ],
            [
              70.72654724121094,
              33.90746307373047
            ],
            [
              69.98755645751953,
              34.03607940673828
            ],
            [
              69.88106536865234,
              33.90746307373047
            ],
            [
              69.48212432861328,
              33.84315490722656
            ],
            [
              69.05985260009766,
              33.32876968383789
            ],
            [
              68.35563659667969,
              33.26447677612305
            ],
            [
              67.7095718383789,
              32.75019073486328
            ],
            [
              67.65596008300781,
              32.493072509765625
            ],
            [
              67.0674057006836,
              31.8503360748291
            ],
            [
              66.95445251464844,
              31.271915435791016
            ],
            [
              66.5251693725586,
              31.014846801757812
            ],
            [
              66.44911193847656,
              31.014846801757812
            ],
            [
              66.48328399658203,
              31.593257904052734
            ],
            [
              66.10224151611328,
              31.593257904052734
            ],
            [
              65.75824737548828,
              31.78606605529785
            ],
            [
              65.68199157714844,
              31.78606605529785
            ],
            [
              64.38263702392578,
              32.171695709228516
            ],
            [
              63.55480194091797,
              32.23596954345703
            ],
            [
              63.426448822021484,
              32.36451721191406
            ],
            [
              63.872615814208984,
              33.84315490722656
            ],
            [
              64.3238754272461,
              34.164703369140625
            ],
            [
              64.57353210449219,
              34.614952087402344
            ],
            [
              65.09204864501953,
              34.87228775024414
            ],
            [
              64.85395812988281,
              35.194007873535156
            ],
            [
              64.8285140991211,
              35.77327346801758
            ],
            [
              64.75106811523438,
              35.77327346801758
            ],
            [
              65.15513610839844,
              38.738853454589844
            ],
            [
              65.07666015625,
              38.738853454589844
            ],
            [
              65.1440658569336,
              38.997230529785156
            ],
            [
              65.06549835205078,
              38.997230529785156
            ],
            [
              65.2818832397461,
              39.51427459716797
            ],
            [
              65.20310974121094,
              39.51427459716797
            ],
            [
              65.29122161865234,
              39.8376350402832
            ],
            [
              65.56378936767578,
              39.9670295715332
            ],
            [
              65.88282012939453,
              40.80876541137695
            ],
            [
              65.96211242675781,
              40.80876541137695
            ],
            [
              66.65251922607422,
              41.26253128051758
            ],
            [
              66.89097595214844,
              41.26253128051758
            ],
            [
              67.54730987548828,
              41.586883544921875
            ],
            [
              68.02506256103516,
              41.586883544921875
            ],
            [
              68.22328186035156,
              41.45711898803711
            ],
            [
              68.97801208496094,
              41.32738494873047
            ],
            [
              69.57976531982422,
              41.71668243408203
            ],
            [
              70.01571655273438,
              41.586883544921875
            ],
            [
              71.62983703613281,
              41.65177917480469
            ],
            [
              71.84052276611328,
              41.32738494873047
            ],
            [
              71.99954986572266,
              41.32738494873047
            ],
            [
              71.97811126708984,
              41.26253128051758
            ]
          ]
        ]
      }
    }
  ]
}