{
  "type": "FeatureCollection",
  "features": [
    {
      "type": "Feature",
      "properties": {
        "Name": "Kushan Empire",
        "FromYear": 91,
        "ToYear": 116,
        "Area": 1709274.5034871653,
        "Type": "POLITY",
        "Wikipedia": "Kushan Empire",
        "Wikidata": "Q25979",
        "SeshatID": "af_kushan_emp",
        "Components": "",
        "MemberOf": ""
      },
      "geometry": {
        "type": "MultiPolygon",
        "coordinates": [
          [
            [
              [
                71.97811126708984,
                41.26253128051758
              ],
              [
                72.1370849609375,
                41.26253128051758
              ],
              [
                72.23180389404297,
                41.06801223754883
              ],
              [
                72.47001647949219,
                41.06801223754883
              ],
              [
                73.01934814453125,
                40.80876541137695
              ],
              [
                73.09864044189453,
                40.80876541137695
              ],
              [
                73.13530731201172,
                40.6791877746582
              ],
              [
                73.29378509521484,
                40.6791877746582
              ],
              [
                73.33053588867188,
                40.54964065551758
              ],
              [
                73.48890686035156,
                40.54964065551758
              ],
              [
                73.5257339477539,
                40.42012023925781
              ],
              [
                73.80000305175781,
                40.29063034057617
              ],
              [
                73.57305908203125,
                39.57893371582031
              ],
              [
                73.39533996582031,
                39.51427459716797
              ],
              [
                73.6902847290039,
                39.449623107910156
              ],
              [
                73.67021179199219,
                39.38497543334961
              ],
              [
                73.63028717041016,
                39.25570297241211
              ],
              [
                73.7479019165039,
                39.1264533996582
              ],
              [
                73.49423217773438,
                38.54513168334961
              ],
              [
                72.75897979736328,
                37.89975357055664
              ],
              [
                72.42290496826172,
                37.254878997802734
              ],
              [
                72.37012481689453,
                37.06150817871094
              ],
              [
                72.447998046875,
                37.06150817871094
              ],
              [
                72.2318344116211,
                36.5460319519043
              ],
              [
                72.30953216552734,
                36.5460319519043
              ],
              [
                72.30231475830078,
                36.2239875793457
              ],
              [
                72.50135803222656,
                36.09519577026367
              ],
              [
                72.46781921386719,
                35.9664192199707
              ],
              [
                72.63961791992188,
                36.03080368041992
              ],
              [
                72.6061019897461,
                35.902034759521484
              ],
              [
                72.8218002319336,
                35.837650299072266
              ],
              [
                72.71102905273438,
                35.708900451660156
              ],
              [
                73.44120788574219,
                34.93662643432617
              ],
              [
                73.81070709228516,
                34.87228775024414
              ],
              [
                73.70096588134766,
                34.743614196777344
              ],
              [
                73.99312591552734,
                34.679283142089844
              ],
              [
                74.2972640991211,
                34.3576545715332
              ],
              [
                74.45126342773438,
                34.3576545715332
              ],
              [
                74.63370513916016,
                34.164703369140625
              ],
              [
                74.60157775878906,
                34.03607940673828
              ],
              [
                74.80021667480469,
                33.90746307373047
              ],
              [
                74.76834869384766,
                33.77885055541992
              ],
              [
                75.02796936035156,
                33.5859489440918
              ],
              [
                74.99642181396484,
                33.45735549926758
              ],
              [
                75.13414764404297,
                33.393062591552734
              ],
              [
                75.10282135009766,
                33.26447677612305
              ],
              [
                75.24053955078125,
                33.20018768310547
              ],
              [
                75.27055358886719,
                33.00732421875
              ],
              [
                75.42375183105469,
                33.00732421875
              ],
              [
                75.46939849853516,
                32.878753662109375
              ],
              [
                75.88238525390625,
                32.685909271240234
              ],
              [
                76.12737274169922,
                32.75019073486328
              ],
              [
                76.08113098144531,
                32.557350158691406
              ],
              [
                76.60095977783203,
                32.171695709228516
              ],
              [
                78.4480209350586,
                31.593257904052734
              ],
              [
                78.84430694580078,
                31.65752601623535
              ],
              [
                78.81387329101562,
                31.528987884521484
              ],
              [
                79.17961883544922,
                31.464719772338867
              ],
              [
                79.60707092285156,
                31.014846801757812
              ],
              [
                79.62389373779297,
                30.757776260375977
              ],
              [
                79.82250213623047,
                30.629240036010742
              ],
              [
                79.84490966796875,
                30.050809860229492
              ],
              [
                79.95435333251953,
                29.857990264892578
              ],
              [
                79.88524627685547,
                29.536611557006836
              ],
              [
                79.96094512939453,
                29.536611557006836
              ],
              [
                79.83783721923828,
                28.572391510009766
              ],
              [
                79.3751220703125,
                27.736658096313477
              ],
              [
                79.03836822509766,
                27.54378890991211
              ],
              [
                78.6567611694336,
                27.093751907348633
              ],
              [
                78.50641632080078,
                27.093751907348633
              ],
              [
                78.48396301269531,
                26.96516990661621
              ],
              [
                78.24742126464844,
                26.900876998901367
              ],
              [
                78.23637390136719,
                26.836584091186523
              ],
              [
                77.23820495605469,
                26.70800018310547
              ],
              [
                77.10957336425781,
                26.836584091186523
              ],
              [
                76.58372497558594,
                26.836584091186523
              ],
              [
                75.20023345947266,
                26.643707275390625
              ],
              [
                73.17902374267578,
                26.19365882873535
              ],
              [
                71.90473175048828,
                25.67931365966797
              ],
              [
                71.23513793945312,
                25.164974212646484
              ],
              [
                71.08550262451172,
                25.164974212646484
              ],
              [
                70.57011413574219,
                24.650644302368164
              ],
              [
                70.6047592163086,
                24.329193115234375
              ],
              [
                70.44752502441406,
                24.264904022216797
              ],
              [
                70.42416381835938,
                24.07203483581543
              ],
              [
                70.06529235839844,
                23.557723999023438
              ],
              [
                69.49991607666016,
                23.171995162963867
              ],
              [
                69.03872680664062,
                23.043420791625977
              ],
              [
                69.02472686767578,
                22.914846420288086
              ],
              [
                68.95024871826172,
                22.914846420288086
              ],
              [
                68.60577392578125,
                23.171995162963867
              ],
              [
                68.55245971679688,
                23.36486053466797
              ],
              [
                68.3359375,
                23.429147720336914
              ],
              [
                68.35022735595703,
                23.557723999023438
              ],
              [
                68.12652587890625,
                23.557723999023438
              ],
              [
                68.15538787841797,
                23.814878463745117
              ],
              [
                67.63314819335938,
                23.814878463745117
              ],
              [
                67.49114990234375,
                23.879167556762695
              ],
              [
                67.43836975097656,
                24.07203483581543
              ],
              [
                67.28907775878906,
                24.07203483581543
              ],
              [
                67.32612609863281,
                24.393482208251953
              ],
              [
                67.14765930175781,
                24.779226303100586
              ],
              [
                66.63204956054688,
                24.843517303466797
              ],
              [
                66.63977813720703,
                24.907808303833008
              ],
              [
                67.1120834350586,
                25.100683212280273
              ],
              [
                67.50210571289062,
                25.807899475097656
              ],
              [
                67.19660949707031,
                26.32224464416504
              ],
              [
                67.17454528808594,
                27.222335815429688
              ],
              [
                67.06233215332031,
                27.4794979095459
              ],
              [
                67.12104034423828,
                27.865236282348633
              ],
              [
                67.04571533203125,
                27.865236282348633
              ],
              [
                67.04087829589844,
                28.315250396728516
              ],
              [
                66.9654541015625,
                28.315250396728516
              ],
              [
                67.0067367553711,
                28.572391510009766
              ],
              [
                66.93125915527344,
                28.572391510009766
              ],
              [
                67.13524627685547,
                29.34377670288086
              ],
              [
                66.99494171142578,
                29.40805435180664
              ],
              [
                66.8879623413086,
                29.665164947509766
              ],
              [
                66.4336166381836,
                29.665164947509766
              ],
              [
                66.0771255493164,
                29.79371452331543
              ],
              [
                66.3155746459961,
                29.857990264892578
              ],
              [
                66.4184341430664,
                30.436433792114258
              ],
              [
                66.34252166748047,
                30.436433792114258
              ],
              [
                66.5251693725586,
                31.014846801757812
              ],
              [
                66.44911193847656,
                31.014846801757812
              ],
              [
                66.48328399658203,
                31.593257904052734
              ],
              [
                66.10224151611328,
                31.593257904052734
              ],
              [
                65.69441223144531,
                31.8503360748291
              ],
              [
                65.02023315429688,
                31.91460609436035
              ],
              [
                64.38263702392578,
                32.171695709228516
              ],
              [
                63.55480194091797,
                32.23596954345703
              ],
              [
                63.426448822021484,
                32.36451721191406
              ],
              [
                63.872615814208984,
                33.84315490722656
              ],
              [
                64.3238754272461,
                34.164703369140625
              ],
              [
                64.57353210449219,
                34.614952087402344
              ],
              [
                65.09204864501953,
                34.87228775024414
              ],
              [
                64.85395812988281,
                35.194007873535156
              ],
              [
                64.8285140991211,
                35.77327346801758
              ],
              [
                64.75106811523438,
                35.77327346801758
              ],
              [
                65.15513610839844,
                38.738853454589844
              ],
              [
                65.07666015625,
                38.738853454589844
              ],
              [
                65.1440658569336,
                38.997230529785156
              ],
              [
                65.06549835205078,
                38.997230529785156
              ],
              [
                65.2818832397461,
                39.51427459716797
              ],
              [
                65.20310974121094,
                39.51427459716797
              ],
              [
                65.29122161865234,
                39.8376350402832
              ],
              [
                65.56378936767578,
                39.9670295715332
              ],
              [
                65.88282012939453,
                40.80876541137695
              ],
              [
                65.96211242675781,
                40.80876541137695
              ],
              [
                66.65251922607422,
                41.26253128051758
              ],
              [
                66.89097595214844,
                41.26253128051758
              ],
              [
                67.54730987548828,
                41.586883544921875
              ],
              [
                68.02506256103516,
                41.586883544921875
              ],
              [
                68.22328186035156,
                41.45711898803711
              ],
              [
                68.97801208496094,
                41.32738494873047
              ],
              [
                69.57976531982422,
                41.71668243408203
              ],
              [
                70.01571655273438,
                41.586883544921875
              ],
              [
                71.62983703613281,
                41.65177917480469
              ],
              [
                71.84052276611328,
                41.32738494873047
              ],
              [
                71.99954986572266,
                41.32738494873047
              ],
              [
                71.97811126708984,
                41.26253128051758
              ]
            ]
          ],
          [
            [
              [
                72.50135803222656,
                36.09519577026367
              ],
              [
                72.51819610595703,
                36.15959167480469
              ],
              [
                72.59576416015625,
                36.15959167480469
              ],
              [
                72.57890319824219,
                36.09519577026367
              ],
              [
                72.50135803222656,
                36.09519577026367
              ]
            ]
          ]
        ]
      }
    }
  ]
}