{"type": "FeatureCollection", "features": [{"type": "Feature", "properties": {"Name": "Parthian Empire", "FromYear": -36, "ToYear": 0, "Area": 2702719.515722604, "Type": "POLITY", "Wikipedia": "Parthian Empire", "Wikidata": "Q1986139", "SeshatID": "ir_parthian_emp_1", "Components": "", "MemberOf": ""}, "geometry": {"type": "MultiPolygon", "coordinates": [[[[51.13753128051758, 25.48643684387207], [51.212406158447266, 25.48643684387207], [51.20655059814453, 25.422143936157227], [51.13168716430664, 25.422143936157227], [51.13753128051758, 25.48643684387207]]], [[[50.42986297607422, 25.936485290527344], [50.460208892822266, 26.257951736450195], [50.68524169921875, 26.257951736450195], [50.672935485839844, 26.129364013671875], [50.666831970214844, 26.06507110595703], [50.64872360229492, 25.8721923828125], [50.42986297607422, 25.936485290527344]]], [[[57.351158142089844, 40.29063034057617], [58.33203125, 40.42012023925781], [58.53737258911133, 40.29063034057617], [58.85369873046875, 40.29063034057617], [58.97971725463867, 40.16116714477539], [59.77000427246094, 40.16116714477539], [59.768306732177734, 39.8376350402832], [60.08390426635742, 39.8376350402832], [60.05183792114258, 39.70827102661133], [60.6826171875, 39.70827102661133], [60.713134765625, 39.51427459716797], [60.9494514465332, 39.51427459716797], [62.50175094604492, 40.031734466552734], [62.879478454589844, 39.9670295715332], [64.01988983154297, 40.0964469909668], [64.38936614990234, 40.29063034057617], [65.23503112792969, 40.4848747253418], [65.27192687988281, 40.614410400390625], [65.35114288330078, 40.614410400390625], [65.36971282958984, 40.6791877746582], [65.4489517211914, 40.6791877746582], [65.43035125732422, 40.614410400390625], [65.58878326416016, 40.614410400390625], [65.80352020263672, 40.80876541137695], [65.88282012939453, 40.80876541137695], [65.56378936767578, 39.9670295715332], [65.29122161865234, 39.8376350402832], [65.20310974121094, 39.51427459716797], [65.2818832397461, 39.51427459716797], [65.06549835205078, 38.997230529785156], [65.1440658569336, 38.997230529785156], [65.07666015625, 38.738853454589844], [65.15513610839844, 38.738853454589844], [64.75106811523438, 35.77327346801758], [64.8285140991211, 35.77327346801758], [64.85395812988281, 35.194007873535156], [65.09204864501953, 34.87228775024414], [64.57353210449219, 34.614952087402344], [64.3238754272461, 34.164703369140625], [63.872615814208984, 33.84315490722656], [63.426448822021484, 32.36451721191406], [63.185020446777344, 32.30024337768555], [63.16080093383789, 32.171695709228516], [62.81953811645508, 31.978878021240234], [62.42121505737305, 31.464719772338867], [61.941524505615234, 31.336183547973633], [61.87461853027344, 30.950578689575195], [60.93583679199219, 29.857990264892578], [62.3036994934082, 29.40805435180664], [64.11966705322266, 29.40805435180664], [64.52979278564453, 29.600887298583984], [65.12470245361328, 29.536611557006836], [65.76306915283203, 29.729440689086914], [66.8879623413086, 29.665164947509766], [66.99494171142578, 29.40805435180664], [67.13524627685547, 29.34377670288086], [66.93125915527344, 28.572391510009766], [67.0067367553711, 28.572391510009766], [66.9654541015625, 28.315250396728516], [67.04087829589844, 28.315250396728516], [67.04571533203125, 27.865236282348633], [67.12104034423828, 27.865236282348633], [67.06233215332031, 27.4794979095459], [67.17454528808594, 27.222335815429688], [67.19660949707031, 26.32224464416504], [67.50210571289062, 25.807899475097656], [67.1120834350586, 25.100683212280273], [66.63977813720703, 24.907808303833008], [66.64754486083984, 24.97209930419922], [66.62029266357422, 25.357851028442383], [66.34514617919922, 25.55072784423828], [66.02147674560547, 25.357851028442383], [64.8160629272461, 25.29355812072754], [64.80064392089844, 25.164974212646484], [64.2845230102539, 25.229267120361328], [64.22502136230469, 25.357851028442383], [63.62620544433594, 25.357851028442383], [63.536216735839844, 25.229267120361328], [62.563419342041016, 25.229267120361328], [62.47393035888672, 25.100683212280273], [62.18195724487305, 25.164974212646484], [62.01787185668945, 25.03639030456543], [61.71868133544922, 25.03639030456543], [61.65822219848633, 25.164974212646484], [61.12736892700195, 25.100683212280273], [60.91714859008789, 25.229267120361328], [60.617828369140625, 25.229267120361328], [60.63211441040039, 25.357851028442383], [59.060218811035156, 25.357851028442383], [58.78172302246094, 25.55072784423828], [57.957984924316406, 25.55072784423828], [57.7402229309082, 25.615020751953125], [57.67921447753906, 25.743606567382812], [57.37953567504883, 25.743606567382812], [57.175662994384766, 25.936485290527344], [57.05242156982422, 26.836584091186523], [56.714656829833984, 27.158044815063477], [56.188377380371094, 27.158044815063477], [56.098140716552734, 27.029460906982422], [56.32361602783203, 27.029460906982422], [56.30864334106445, 26.900876998901367], [56.06119155883789, 26.70800018310547], [55.60341262817383, 26.643707275390625], [55.439002990722656, 26.515121459960938], [55.28888702392578, 26.515121459960938], [55.31023025512695, 26.70800018310547], [55.542747497558594, 26.772293090820312], [55.242313385009766, 26.772293090820312], [54.83156204223633, 26.450830459594727], [54.463233947753906, 26.515121459960938], [54.25889205932617, 26.70800018310547], [53.65812301635742, 26.70800018310547], [53.46059036254883, 26.96516990661621], [52.736968994140625, 27.222335815429688], [52.478694915771484, 27.608078002929688], [52.04855728149414, 27.800947189331055], [51.5966796875, 27.800947189331055], [51.31684494018555, 27.993812561035156], [51.331298828125, 28.12238883972168], [51.06624984741211, 28.44382095336914], [51.028076171875, 28.765243530273438], [50.80903244018555, 28.829526901245117], [50.9150390625, 29.08665657043457], [50.620323181152344, 29.150936126708984], [50.65126037597656, 29.40805435180664], [50.23628234863281, 29.729440689086914], [50.0648078918457, 30.179353713989258], [49.585899353027344, 29.986536026000977], [48.942848205566406, 30.307893753051758], [48.987266540527344, 30.050809860229492], [48.36544418334961, 29.922264099121094], [48.40353012084961, 29.600887298583984], [47.8662223815918, 29.536611557006836], [47.85165023803711, 29.40805435180664], [48.078643798828125, 29.40805435180664], [48.21538543701172, 29.279497146606445], [48.19374465942383, 29.08665657043457], [48.460411071777344, 28.765243530273438], [48.562652587890625, 28.315250396728516], [48.974143981933594, 27.92952537536621], [48.87215805053711, 27.6723690032959], [49.241947174072266, 27.608078002929688], [49.35963439941406, 27.2866268157959], [50.13496398925781, 26.772293090820312], [50.11603546142578, 26.57941436767578], [50.2536735534668, 26.450830459594727], [50.22300720214844, 26.129364013671875], [50.067020416259766, 26.06507110595703], [50.21097183227539, 26.000778198242188], [50.325462341308594, 25.615020751953125], [50.60764694213867, 25.422143936157227], [50.654117584228516, 25.100683212280273], [50.72892761230469, 25.100683212280273], [50.768985748291016, 25.55072784423828], [50.92463302612305, 25.615020751953125], [50.95453643798828, 25.936485290527344], [51.12286376953125, 26.129364013671875], [51.42281723022461, 26.129364013671875], [51.697906494140625, 25.8721923828125], [51.574989318847656, 25.357851028442383], [51.71883010864258, 25.29355812072754], [51.69002151489258, 24.97209930419922], [51.52363204956055, 24.779226303100586], [51.41082000732422, 24.329193115234375], [51.85354995727539, 24.264904022216797], [51.90695571899414, 24.00774574279785], [52.28013229370117, 24.00774574279785], [52.60029602050781, 24.264904022216797], [53.11201095581055, 24.136323928833008], [54.082523345947266, 24.136323928833008], [54.099464416503906, 24.329193115234375], [54.31781005859375, 24.264904022216797], [54.55914306640625, 24.457773208618164], [54.74416732788086, 24.843517303466797], [55.14265441894531, 25.100683212280273], [55.41188049316406, 25.55072784423828], [55.9695930480957, 25.8721923828125], [56.16815948486328, 26.32224464416504], [56.47541046142578, 26.386537551879883], [56.543277740478516, 26.32224464416504], [56.38539123535156, 25.55072784423828], [56.46027374267578, 25.55072784423828], [56.42084503173828, 25.164974212646484], [56.495662689208984, 25.164974212646484], [56.401641845703125, 24.97209930419922], [56.54487228393555, 24.907808303833008], [56.78811264038086, 24.329193115234375], [57.49265670776367, 23.879167556762695], [58.811527252197266, 23.622013092041016], [59.08000183105469, 23.30057144165039], [59.0682487487793, 23.171995162963867], [59.280067443847656, 23.043420791625977], [59.2684440612793, 22.914846420288086], [58.89606857299805, 22.914846420288086], [58.90760040283203, 23.043420791625977], [58.60962677001953, 23.043420791625977], [58.33469772338867, 23.30057144165039], [57.9620475769043, 23.30057144165039], [57.9736213684082, 23.429147720336914], [57.83032989501953, 23.493436813354492], [56.809471130371094, 23.75058937072754], [56.82111358642578, 23.879167556762695], [56.54021453857422, 24.07203483581543], [56.48937225341797, 24.329193115234375], [56.27132034301758, 24.393482208251953], [56.28951644897461, 24.586353302001953], [56.0899658203125, 24.843517303466797], [55.8594856262207, 24.779226303100586], [55.84116744995117, 24.586353302001953], [55.62303161621094, 24.650644302368164], [54.812095642089844, 23.943456649780273], [54.273193359375, 23.75058937072754], [51.88096237182617, 23.68630027770996], [51.82186508178711, 23.879167556762695], [51.1657829284668, 24.07203483581543], [51.10155487060547, 24.200613021850586], [51.20280075073242, 24.522062301635742], [51.13348388671875, 24.586353302001953], [51.293853759765625, 24.714935302734375], [51.327396392822266, 25.100683212280273], [51.40220642089844, 25.100683212280273], [51.26978302001953, 25.29355812072754], [51.350433349609375, 25.357851028442383], [51.32320022583008, 25.8721923828125], [51.173316955566406, 25.8721923828125], [51.23017883300781, 25.67931365966797], [50.98196029663086, 25.422143936157227], [50.96469497680664, 25.229267120361328], [51.12009811401367, 25.29355812072754], [50.920127868652344, 24.714935302734375], [50.615760803222656, 24.650644302368164], [50.34384536743164, 24.97209930419922], [50.031654357910156, 25.67931365966797], [49.674476623535156, 25.8721923828125], [49.87843704223633, 26.450830459594727], [49.25245666503906, 26.96516990661621], [49.26514434814453, 27.093751907348633], [49.058799743652344, 27.2866268157959], [48.55152893066406, 27.4794979095459], [48.466854095458984, 28.12238883972168], [48.247432708740234, 28.186676025390625], [48.2060546875, 28.508106231689453], [48.05513000488281, 28.508106231689453], [48.1443977355957, 28.636676788330078], [48.00033950805664, 28.700960159301758], [48.0142822265625, 28.829526901245117], [47.808712005615234, 29.022375106811523], [47.650543212890625, 28.958093643188477], [47.67168426513672, 29.150936126708984], [47.534664154052734, 29.279497146606445], [47.653751373291016, 29.665164947509766], [47.28971481323242, 29.79371452331543], [46.97944259643555, 29.729440689086914], [46.99397659301758, 29.857990264892578], [46.84971618652344, 29.922264099121094], [46.61511993408203, 29.857990264892578], [46.590572357177734, 30.307893753051758], [45.77046203613281, 30.436433792114258], [44.95460891723633, 31.271915435791016], [44.5814208984375, 31.336183547973633], [44.459014892578125, 31.593257904052734], [43.152584075927734, 32.81447219848633], [42.708534240722656, 32.94303894042969], [42.36363983154297, 33.26447677612305], [42.064544677734375, 33.32876968383789], [41.788108825683594, 33.5859489440918], [41.48860549926758, 33.65024948120117], [41.211639404296875, 33.90746307373047], [40.62665939331055, 34.164703369140625], [40.549720764160156, 34.164703369140625], [40.47920608520508, 34.87228775024414], [40.26304244995117, 35.00096893310547], [40.27842712402344, 35.12965774536133], [40.06206512451172, 35.258358001708984], [39.938289642333984, 35.51579284667969], [39.497074127197266, 35.708900451660156], [39.752662658691406, 35.902034759521484], [40.80888366699219, 36.28839111328125], [41.28292465209961, 36.3527946472168], [41.54127502441406, 36.5460319519043], [41.67108917236328, 36.3527946472168], [41.98162078857422, 36.3527946472168], [42.62904357910156, 36.5460319519043], [42.62268829345703, 37.06150817871094], [42.764678955078125, 37.51277160644531], [42.773963928222656, 37.5772590637207], [42.85201644897461, 37.5772590637207], [42.861351013183594, 37.641746520996094], [42.870723724365234, 37.706241607666016], [42.880123138427734, 37.7707405090332], [43.88600158691406, 37.706241607666016], [43.94475173950195, 37.5772590637207], [44.63739776611328, 37.51277160644531], [44.773807525634766, 37.38381576538086], [44.80312728881836, 37.06150817871094], [45.2508544921875, 36.932613372802734], [45.44583511352539, 37.1904182434082], [45.290000915527344, 37.1904182434082], [45.25165939331055, 37.44829177856445], [45.17365264892578, 37.44829177856445], [45.22376251220703, 37.7707405090332], [45.634883880615234, 37.89975357055664], [45.85390853881836, 38.28691864013672], [46.12089157104492, 38.48057174682617], [47.25161361694336, 38.67427444458008], [48.32598876953125, 38.09331130981445], [48.795413970947266, 38.09331130981445], [48.87364959716797, 38.09331130981445], [48.82852554321289, 37.835243225097656], [49.08510208129883, 37.51277160644531], [49.85409164428711, 37.44829177856445], [50.320892333984375, 36.9970588684082], [50.56571960449219, 37.06150817871094], [50.632293701171875, 36.9970588684082], [50.53199768066406, 36.8681755065918], [51.26472473144531, 36.61045455932617], [52.18585205078125, 36.5460319519043], [53.08772277832031, 36.80373764038086], [54.033294677734375, 36.8681755065918], [54.09466552734375, 37.1904182434082], [53.91046905517578, 37.44829177856445], [53.90790557861328, 37.835243225097656], [53.82976150512695, 37.835243225097656], [53.98678207397461, 38.997230529785156], [53.5175895690918, 39.38497543334961], [53.13750457763672, 39.449623107910156], [53.54492950439453, 39.51427459716797], [53.498451232910156, 40.031734466552734], [52.72255325317383, 40.0964469909668], [52.71352767944336, 40.42012023925781], [52.792659759521484, 40.42012023925781], [52.89295959472656, 40.873565673828125], [52.97228240966797, 40.873565673828125], [52.943321228027344, 40.74397277832031], [53.33966064453125, 40.74397277832031], [53.448211669921875, 40.873565673828125], [53.40435791015625, 40.6791877746582], [54.543670654296875, 40.80876541137695], [56.6547966003418, 40.355369567871094], [56.98675537109375, 40.42012023925781], [56.955753326416016, 40.29063034057617], [57.03483581542969, 40.29063034057617], [57.241092681884766, 40.16116714477539], [57.351158142089844, 40.29063034057617]]]]}}]}