{
  "type": "FeatureCollection",
  "features": [
    {
      "type": "Feature",
      "properties": {
        "Name": "Kingdom of Pergamon",
        "FromYear": -164,
        "ToYear": -145,
        "Area": 176006.4628783132,
        "Type": "POLITY",
        "Wikipedia": "Kingdom of Pergamon",
        "Wikidata": "Q2022162",
        "SeshatID": "tr_pergamon_k",
        "Components": "",
        "MemberOf": ""
      },
      "geometry": {
        "type": "MultiPolygon",
        "coordinates": [
          [
            [
              [
                26.313875198364258,
                37.706241607666016
              ],
              [
                26.304851531982422,
                37.5772590637207
              ],
              [
                25.988245010375977,
                37.51277160644531
              ],
              [
                26.079580307006836,
                37.706241607666016
              ],
              [
                26.157678604125977,
                37.706241607666016
              ],
              [
                26.313875198364258,
                37.706241607666016
              ]
            ]
          ],
          [
            [
              [
                27.026260375976562,
                37.835243225097656
              ],
              [
                27.012035369873047,
                37.641746520996094
              ],
              [
                26.62165641784668,
                37.641746520996094
              ],
              [
                26.55739402770996,
                37.835243225097656
              ],
              [
                26.635540008544922,
                37.835243225097656
              ],
              [
                27.026260375976562,
                37.835243225097656
              ]
            ]
          ],
          [
            [
              [
                28.492568969726562,
                40.355369567871094
              ],
              [
                28.57167625427246,
                40.355369567871094
              ],
              [
                28.65078353881836,
                40.355369567871094
              ],
              [
                28.729890823364258,
                40.355369567871094
              ],
              [
                28.95498275756836,
                40.225894927978516
              ],
              [
                29.350255966186523,
                40.225894927978516
              ],
              [
                29.45450210571289,
                40.4848747253418
              ],
              [
                29.935983657836914,
                40.54964065551758
              ],
              [
                29.922971725463867,
                40.42012023925781
              ],
              [
                30.068220138549805,
                40.29063034057617
              ],
              [
                30.457021713256836,
                40.225894927978516
              ],
              [
                30.601898193359375,
                40.0964469909668
              ],
              [
                30.588769912719727,
                39.9670295715332
              ],
              [
                31.29932403564453,
                39.9670295715332
              ],
              [
                31.37827491760254,
                39.9670295715332
              ],
              [
                31.23297691345215,
                39.320335388183594
              ],
              [
                31.442956924438477,
                39.06184005737305
              ],
              [
                31.42363929748535,
                38.8680305480957
              ],
              [
                31.737733840942383,
                38.8680305480957
              ],
              [
                31.803258895874023,
                38.738853454589844
              ],
              [
                32.189048767089844,
                38.67427444458008
              ],
              [
                33.58720779418945,
                38.54513168334961
              ],
              [
                33.617393493652344,
                38.09331130981445
              ],
              [
                33.69563293457031,
                38.09331130981445
              ],
              [
                33.6484489440918,
                37.641746520996094
              ],
              [
                33.78459167480469,
                37.44829177856445
              ],
              [
                33.94060516357422,
                37.44829177856445
              ],
              [
                33.98537826538086,
                37.12596130371094
              ],
              [
                33.433685302734375,
                37.06150817871094
              ],
              [
                33.09705352783203,
                36.80373764038086
              ],
              [
                32.86370086669922,
                36.80373764038086
              ],
              [
                32.72043991088867,
                36.932613372802734
              ],
              [
                32.55256271362305,
                36.80373764038086
              ],
              [
                31.76885223388672,
                36.73930740356445
              ],
              [
                31.691089630126953,
                36.73930740356445
              ],
              [
                31.08603858947754,
                36.932613372802734
              ],
              [
                30.619068145751953,
                36.932613372802734
              ],
              [
                30.51915168762207,
                36.67487716674805
              ],
              [
                30.513673782348633,
                36.61045455932617
              ],
              [
                29.720800399780273,
                36.417205810546875
              ],
              [
                29.570659637451172,
                36.48161697387695
              ],
              [
                29.596742630004883,
                36.80373764038086
              ],
              [
                29.60201072692871,
                36.8681755065918
              ],
              [
                29.701147079467773,
                37.12596130371094
              ],
              [
                29.40015983581543,
                37.254878997802734
              ],
              [
                29.260168075561523,
                37.44829177856445
              ],
              [
                28.724483489990234,
                37.5772590637207
              ],
              [
                28.677833557128906,
                37.96426773071289
              ],
              [
                28.453739166259766,
                38.09331130981445
              ],
              [
                28.140790939331055,
                38.09331130981445
              ],
              [
                27.969045639038086,
                37.89975357055664
              ],
              [
                27.72955894470215,
                37.835243225097656
              ],
              [
                27.18254852294922,
                37.835243225097656
              ],
              [
                27.1873722076416,
                37.89975357055664
              ],
              [
                27.27528190612793,
                38.028785705566406
              ],
              [
                26.888994216918945,
                38.09331130981445
              ],
              [
                26.820327758789062,
                38.22237777709961
              ],
              [
                26.42890739440918,
                38.22237777709961
              ],
              [
                26.38368797302246,
                38.67427444458008
              ],
              [
                26.535762786865234,
                38.60969924926758
              ],
              [
                26.594974517822266,
                38.351463317871094
              ],
              [
                27.06496238708496,
                38.351463317871094
              ],
              [
                27.079774856567383,
                38.54513168334961
              ],
              [
                26.849470138549805,
                38.60969924926758
              ],
              [
                26.95786476135254,
                38.997230529785156
              ],
              [
                26.879291534423828,
                38.997230529785156
              ],
              [
                26.894468307495117,
                39.19107437133789
              ],
              [
                26.742225646972656,
                39.25570297241211
              ],
              [
                26.84657859802246,
                39.57893371582031
              ],
              [
                26.132457733154297,
                39.51427459716797
              ],
              [
                26.16754913330078,
                39.9670295715332
              ],
              [
                26.24650001525879,
                39.9670295715332
              ],
              [
                26.2723331451416,
                40.29063034057617
              ],
              [
                26.604726791381836,
                40.4848747253418
              ],
              [
                26.683887481689453,
                40.4848747253418
              ],
              [
                26.673099517822266,
                40.355369567871094
              ],
              [
                27.46982192993164,
                40.42012023925781
              ],
              [
                27.616708755493164,
                40.29063034057617
              ],
              [
                27.695789337158203,
                40.29063034057617
              ],
              [
                28.170276641845703,
                40.29063034057617
              ],
              [
                28.182025909423828,
                40.42012023925781
              ],
              [
                28.261159896850586,
                40.42012023925781
              ],
              [
                28.340293884277344,
                40.42012023925781
              ],
              [
                28.334354400634766,
                40.355369567871094
              ],
              [
                28.413461685180664,
                40.355369567871094
              ],
              [
                28.492568969726562,
                40.355369567871094
              ]
            ]
          ],
          [
            [
              [
                27.102048873901367,
                40.74397277832031
              ],
              [
                26.921367645263672,
                40.4848747253418
              ],
              [
                26.76849937438965,
                40.54964065551758
              ],
              [
                26.773971557617188,
                40.614410400390625
              ],
              [
                26.78497886657715,
                40.74397277832031
              ],
              [
                27.102048873901367,
                40.74397277832031
              ]
            ]
          ],
          [
            [
              [
                26.06629753112793,
                40.6791877746582
              ],
              [
                26.230104446411133,
                40.74397277832031
              ],
              [
                26.309371948242188,
                40.74397277832031
              ],
              [
                26.5417423248291,
                40.6791877746582
              ],
              [
                26.06629753112793,
                40.6791877746582
              ]
            ]
          ]
        ]
      }
    }
  ]
}