{"type":"FeatureCollection","features":[{"type":"Feature","properties":{"Name":"Kingdom of Pontus","FromYear":-77,"ToYear":-67,"Area":218339.8457748257,"Type":"POLITY","Wikipedia":"Kingdom of Pontus","Wikidata":"Q7380487","SeshatID":"","Components":"","MemberOf":""},"geometry":{"type":"MultiPolygon","coordinates":[[[[42.697227478027344,42.88639831542969],[42.78635025024414,42.496177673339844],[42.9345703125,42.43117141723633],[42.887542724609375,42.17123794555664],[42.80765914916992,42.17123794555664],[42.8294792175293,41.84651184082031],[42.65854263305664,41.781593322753906],[42.6357307434082,41.65177917480469],[42.71538543701172,41.65177917480469],[42.36305618286133,41.45711898803711],[42.25017166137695,41.26253128051758],[41.534793853759766,41.26253128051758],[41.44950485229492,40.74397277832031],[40.9532585144043,40.614410400390625],[40.39818572998047,40.0964469909668],[38.790401458740234,39.90232849121094],[38.92983627319336,39.77294921875],[38.74488830566406,39.57893371582031],[38.963172912597656,39.449623107910156],[38.9273681640625,39.19107437133789],[38.752479553222656,39.06184005737305],[37.860721588134766,39.449623107910156],[36.93256378173828,39.57893371582031],[35.35662841796875,39.57893371582031],[35.29369354248047,39.70827102661133],[34.82843017578125,39.77294921875],[34.53628921508789,39.9670295715332],[34.56786346435547,40.225894927978516],[34.338592529296875,40.29063034057617],[33.555442810058594,40.355369567871094],[33.41252517700195,40.4848747253418],[32.764366149902344,40.355369567871094],[32.30427932739258,40.4848747253418],[32.1032600402832,40.80876541137695],[32.14037322998047,41.132843017578125],[32.30678939819336,41.19768524169922],[32.32196807861328,41.32738494873047],[32.113746643066406,41.586883544921875],[32.1933708190918,41.586883544921875],[32.694705963134766,41.781593322753906],[32.630775451660156,41.911441802978516],[34.78450012207031,41.911441802978516],[34.881736755371094,42.041324615478516],[35.121212005615234,42.041324615478516],[35.15697479248047,41.71668243408203],[35.953800201416016,41.71668243408203],[36.20920181274414,41.26253128051758],[36.77476501464844,41.32738494873047],[37.06510925292969,41.132843017578125],[37.23323440551758,41.19768524169922],[37.21474075317383,41.06801223754883],[37.770565032958984,41.06801223754883],[37.83116149902344,40.93837356567383],[38.15805435180664,41.00318908691406],[38.29773712158203,40.873565673828125],[38.78335189819336,40.93837356567383],[39.0508918762207,41.132843017578125],[39.735538482666016,40.93837356567383],[40.370330810546875,40.93837356567383],[40.390892028808594,41.06801223754883],[40.53934860229492,41.00318908691406],[41.04725646972656,41.19768524169922],[41.15876007080078,41.39224624633789],[41.307071685791016,41.32738494873047],[41.40821838378906,41.45711898803711],[41.567359924316406,41.45711898803711],[41.81525421142578,41.97637939453125],[41.73545837402344,41.97637939453125],[41.75791549682617,42.10627746582031],[41.598209381103516,42.10627746582031],[41.700584411621094,42.236209869384766],[41.48331832885742,42.36617660522461],[41.608699798583984,42.62621307373047],[41.3337516784668,42.88639831542969],[41.173343658447266,42.88639831542969],[41.11582565307617,43.016544342041016],[40.81732177734375,43.146724700927734],[40.41570281982422,43.146724700927734],[40.219173431396484,43.407203674316406],[39.988922119140625,43.472347259521484],[40.17222213745117,43.6026611328125],[40.735965728759766,43.6026611328125],[41.953582763671875,43.211830139160156],[42.52803039550781,43.276947021484375],[42.596412658691406,43.211830139160156],[42.50411605834961,43.146724700927734],[42.4921989440918,43.08163070678711],[42.697227478027344,42.88639831542969]]],[[[42.86637878417969,42.496177673339844],[42.878211975097656,42.56119155883789],[42.95827102661133,42.56119155883789],[42.94640350341797,42.496177673339844],[42.86637878417969,42.496177673339844]]],[[[34.98639678955078,45.62776184082031],[35.01994323730469,45.300437927246094],[36.42308807373047,45.431331634521484],[36.37263107299805,45.10417556762695],[35.87525939941406,45.03877639770508],[35.732418060302734,45.169586181640625],[35.40727996826172,45.169586181640625],[35.297096252441406,44.973392486572266],[34.376285552978516,44.77729415893555],[33.92564392089844,44.45067596435547],[33.52096176147461,44.45067596435547],[33.46652603149414,44.64661407470703],[33.54755401611328,44.64661407470703],[33.61005401611328,45.10417556762695],[32.92236328125,45.431331634521484],[32.59671401977539,45.431331634521484],[33.03901290893555,45.693260192871094],[33.70957565307617,45.82429504394531],[33.73704528808594,46.02093505859375],[34.15492630004883,46.08650588989258],[34.544586181640625,45.95537567138672],[34.74187088012695,45.62776184082031],[34.82337951660156,45.62776184082031],[34.98639678955078,45.62776184082031]]],[[[38.69868850708008,45.889827728271484],[38.38789367675781,45.496795654296875],[38.117279052734375,44.842647552490234],[37.933799743652344,44.71194839477539],[37.52848815917969,44.71194839477539],[37.25600814819336,45.03877639770508],[36.778892517089844,45.10417556762695],[36.74873733520508,45.431331634521484],[36.911563873291016,45.431331634521484],[36.972293853759766,45.300437927246094],[37.704429626464844,45.300437927246094],[37.747013092041016,45.56227111816406],[37.59468460083008,45.62776184082031],[37.7577018737793,45.62776184082031],[37.89311981201172,45.95537567138672],[38.334564208984375,46.1520881652832],[38.36785888671875,46.348915100097656],[37.89856719970703,46.480194091796875],[37.83858108520508,46.61152267456055],[38.494598388671875,46.61152267456055],[38.62202453613281,46.87434005737305],[38.78630065917969,46.87434005737305],[38.89152145385742,47.005828857421875],[39.2203369140625,47.005828857421875],[39.1968879699707,47.33478927612305],[38.35022735595703,47.20316696166992],[38.49021911621094,47.53233337402344],[39.24447250366211,47.598209381103516],[39.715274810791016,47.46647262573242],[39.73744583129883,47.13737487792969],[39.54915237426758,47.005828857421875],[39.59585952758789,46.808616638183594],[39.43165588378906,46.808616638183594],[39.291465759277344,46.480194091796875],[39.104679107666016,46.348915100097656],[39.09326171875,46.283294677734375],[38.86196517944336,45.889827728271484],[38.69868850708008,45.889827728271484]]],[[[34.573150634765625,46.1520881652832],[33.610260009765625,46.283294677734375],[33.59191131591797,46.1520881652832],[32.946651458740234,46.21768569946289],[32.84713363647461,46.08650588989258],[32.683658599853516,46.08650588989258],[32.0639533996582,46.348915100097656],[31.81834602355957,46.348915100097656],[31.835351943969727,46.480194091796875],[32.16309356689453,46.480194091796875],[32.18914794921875,46.677207946777344],[32.03373336791992,46.74290466308594],[31.787527084350586,46.74290466308594],[31.606428146362305,46.61152267456055],[30.87657928466797,46.677207946777344],[30.297666549682617,45.95537567138672],[30.044963836669922,45.889827728271484],[29.85890007019043,45.693260192871094],[29.614274978637695,45.693260192871094],[29.64429473876953,45.95537567138672],[30.091318130493164,46.283294677734375],[30.106895446777344,46.414546966552734],[30.975078582763672,46.808616638183594],[31.082130432128906,47.005828857421875],[33.13723373413086,47.005828857421875],[33.20102310180664,46.87434005737305],[33.848670959472656,46.808616638183594],[33.83925247192383,46.74290466308594],[34.00339126586914,46.74290466308594],[34.573150634765625,46.1520881652832]]]]}}]}