{"type":"FeatureCollection","features":[{"type":"Feature","properties":{"Name":"Kara-Khanids","FromYear":960,"ToYear":999,"Area":408907.5915399202,"Type":"POLITY","Wikipedia":"Kara-Khanid Khanate","Wikidata":"Q494354","SeshatID":"kg_kara_khanid_dyn","Components":"","MemberOf":""},"geometry":{"type":"MultiPolygon","coordinates":[[[[73.58358764648438,45.95537567138672],[73.50191497802734,45.95537567138672],[73.32756042480469,45.496795654296875],[73.74162292480469,45.300437927246094],[73.94288635253906,44.973392486572266],[74.13007354736328,45.03877639770508],[74.25473022460938,45.36587905883789],[74.1169662475586,45.431331634521484],[74.3186264038086,45.95537567138672],[74.7525863647461,46.02093505859375],[74.88140106201172,46.348915100097656],[75.31684112548828,46.414546966552734],[75.4511947631836,46.54585266113281],[77.39138793945312,46.480194091796875],[77.36439514160156,46.414546966552734],[77.82868194580078,46.348915100097656],[77.8016128540039,46.283294677734375],[78.456298828125,46.283294677734375],[78.97484588623047,46.348915100097656],[79.0855941772461,46.61152267456055],[79.27751922607422,46.677207946777344],[79.30550384521484,46.74290466308594],[79.60565948486328,46.677207946777344],[80.0724868774414,46.808616638183594],[80.31562805175781,46.61152267456055],[80.83267211914062,46.480194091796875],[80.91460418701172,46.480194091796875],[81.29569244384766,46.414546966552734],[81.26717376708984,46.348915100097656],[81.70520782470703,46.414546966552734],[81.64789581298828,46.283294677734375],[82.20846557617188,45.693260192871094],[82.15180969238281,45.56227111816406],[82.23328399658203,45.56227111816406],[82.06722259521484,45.36587905883789],[82.28317260742188,45.300437927246094],[82.11763763427734,45.10417556762695],[82.19889068603516,45.10417556762695],[82.1429443359375,44.973392486572266],[82.24942016601562,44.842647552490234],[82.16592407226562,44.64661407470703],[82.24695587158203,44.64661407470703],[82.34644317626953,43.73301696777344],[83.25350189208984,42.62621307373047],[83.22684478759766,42.56119155883789],[82.56132507324219,42.30118942260742],[81.97583770751953,42.236209869384766],[80.13379669189453,42.43117141723633],[80.00323486328125,42.30118942260742],[77.42991638183594,41.39224624633789],[74.35368347167969,41.00318908691406],[74.52167510986328,41.26253128051758],[75.23721313476562,41.71668243408203],[75.19326782226562,42.041324615478516],[74.70391845703125,42.236209869384766],[74.55728149414062,42.496177673339844],[74.01018524169922,42.75628662109375],[73.86345672607422,43.016544342041016],[73.45219421386719,43.211830139160156],[73.36211395263672,43.407203674316406],[73.20122528076172,43.407203674316406],[73.08744812011719,43.53750228881836],[73.13475799560547,43.6678352355957],[72.94038391113281,43.79821014404297],[72.93101501464844,43.99384307861328],[72.41329193115234,44.12431716918945],[72.2990951538086,44.25482940673828],[71.53759002685547,44.38538360595703],[70.081298828125,44.38538360595703],[70.95574951171875,45.693260192871094],[72.0334243774414,46.61152267456055],[73.17585754394531,46.808616638183594],[73.91477966308594,46.808616638183594],[73.88894653320312,46.74290466308594],[74.35539245605469,46.677207946777344],[74.32948303222656,46.61152267456055],[73.95010375976562,46.480194091796875],[73.87349700927734,46.283294677734375],[73.62798309326172,46.283294677734375],[73.52702331542969,46.02093505859375],[73.71565246582031,46.08650588989258],[73.5584945678711,45.889827728271484],[73.58358764648438,45.95537567138672]]],[[[82.31475830078125,45.56227111816406],[82.23328399658203,45.56227111816406],[82.2616195678711,45.62776184082031],[82.34312438964844,45.62776184082031],[82.31475830078125,45.56227111816406]]]]}}]}