{"type": "FeatureCollection", "features": [{"type": "Feature", "properties": {"Name": "Kara-Khanids", "FromYear": 1000, "ToYear": 1009, "Area": 919964.0882202826, "Type": "POLITY", "Wikipedia": "Kara-Khanid Khanate", "Wikidata": "Q494354", "SeshatID": "kg_kara_khanid_dyn", "Components": "", "MemberOf": ""}, "geometry": {"type": "MultiPolygon", "coordinates": [[[[71.4973373413086, 37.5772590637207], [71.50830078125, 37.89975357055664], [71.27379608154297, 37.89975357055664], [71.3639907836914, 38.22237777709961], [71.18379211425781, 38.416015625], [70.71366119384766, 38.416015625], [70.2146987915039, 38.028785705566406], [70.16192626953125, 37.835243225097656], [70.26583862304688, 37.641746520996094], [70.07515716552734, 37.51277160644531], [69.5460205078125, 37.5772590637207], [69.3497543334961, 37.12596130371094], [69.1160659790039, 37.12596130371094], [69.0102767944336, 37.3193473815918], [68.7763900756836, 37.3193473815918], [68.1487045288086, 36.9970588684082], [67.91515350341797, 36.9970588684082], [67.74652099609375, 37.254878997802734], [67.12300109863281, 37.254878997802734], [66.99945068359375, 37.38381576538086], [66.51548767089844, 37.3193473815918], [65.62744903564453, 37.51277160644531], [65.23883056640625, 37.835243225097656], [64.66151428222656, 38.028785705566406], [64.36690521240234, 38.416015625], [64.00749206542969, 38.54513168334961], [63.837432861328125, 38.80344009399414], [63.41547393798828, 38.997230529785156], [63.24568557739258, 39.25570297241211], [63.088340759277344, 39.25570297241211], [62.65380859375, 39.70827102661133], [62.580726623535156, 40.031734466552734], [66.02249145507812, 40.74397277832031], [66.47618103027344, 40.93837356567383], [66.51473236083984, 41.06801223754883], [67.38805389404297, 41.586883544921875], [67.42833709716797, 41.71668243408203], [68.45404052734375, 42.43117141723633], [68.5015640258789, 42.82133865356445], [68.42139434814453, 42.82133865356445], [68.52896118164062, 43.146724700927734], [68.44863891601562, 43.146724700927734], [68.55730438232422, 43.472347259521484], [68.38138580322266, 43.6678352355957], [68.42528533935547, 43.79821014404297], [68.16859436035156, 43.99384307861328], [68.89506530761719, 43.99384307861328], [69.95465087890625, 44.25482940673828], [70.95574951171875, 45.693260192871094], [72.0334243774414, 46.61152267456055], [73.17585754394531, 46.808616638183594], [73.91477966308594, 46.808616638183594], [73.88894653320312, 46.74290466308594], [74.35539245605469, 46.677207946777344], [74.32948303222656, 46.61152267456055], [73.95010375976562, 46.480194091796875], [73.87349700927734, 46.283294677734375], [73.62798309326172, 46.283294677734375], [73.52702331542969, 46.02093505859375], [73.71565246582031, 46.08650588989258], [73.64013671875, 45.889827728271484], [73.50191497802734, 45.95537567138672], [73.32756042480469, 45.496795654296875], [73.74162292480469, 45.300437927246094], [73.91116333007812, 45.10417556762695], [73.86170196533203, 44.973392486572266], [74.13007354736328, 45.03877639770508], [74.25473022460938, 45.36587905883789], [74.1169662475586, 45.431331634521484], [74.3186264038086, 45.95537567138672], [74.7525863647461, 46.02093505859375], [74.88140106201172, 46.348915100097656], [75.31684112548828, 46.414546966552734], [75.4511947631836, 46.54585266113281], [77.39138793945312, 46.480194091796875], [77.36439514160156, 46.414546966552734], [77.82868194580078, 46.348915100097656], [77.8016128540039, 46.283294677734375], [78.456298828125, 46.283294677734375], [78.97484588623047, 46.348915100097656], [79.0855941772461, 46.61152267456055], [79.27751922607422, 46.677207946777344], [79.30550384521484, 46.74290466308594], [79.60565948486328, 46.677207946777344], [80.0724868774414, 46.808616638183594], [80.31562805175781, 46.61152267456055], [80.83267211914062, 46.480194091796875], [80.91460418701172, 46.480194091796875], [81.29569244384766, 46.414546966552734], [81.26717376708984, 46.348915100097656], [81.70520782470703, 46.414546966552734], [81.64789581298828, 46.283294677734375], [82.20846557617188, 45.693260192871094], [82.15180969238281, 45.56227111816406], [82.23328399658203, 45.56227111816406], [82.06722259521484, 45.36587905883789], [82.28317260742188, 45.300437927246094], [82.11763763427734, 45.10417556762695], [82.19889068603516, 45.10417556762695], [82.1429443359375, 44.973392486572266], [82.24942016601562, 44.842647552490234], [82.16592407226562, 44.64661407470703], [82.24695587158203, 44.64661407470703], [82.34644317626953, 43.73301696777344], [83.25350189208984, 42.62621307373047], [83.22684478759766, 42.56119155883789], [82.56132507324219, 42.30118942260742], [81.97583770751953, 42.236209869384766], [80.13379669189453, 42.43117141723633], [80.00323486328125, 42.30118942260742], [77.42991638183594, 41.39224624633789], [75.40795135498047, 41.06801223754883], [74.27430725097656, 41.00318908691406], [74.04322052001953, 40.54964065551758], [73.74198913574219, 40.355369567871094], [73.80000305175781, 40.29063034057617], [73.57305908203125, 39.57893371582031], [73.41546630859375, 39.57893371582031], [73.45404815673828, 39.449623107910156], [73.6902847290039, 39.449623107910156], [73.67021179199219, 39.38497543334961], [73.82711791992188, 38.60969924926758], [74.4151840209961, 38.738853454589844], [74.88594818115234, 38.48057174682617], [74.8084945678711, 38.22237777709961], [74.88677215576172, 38.22237777709961], [74.88848114013672, 37.96426773071289], [75.04723358154297, 37.706241607666016], [74.99104309082031, 37.51277160644531], [75.11182794244651, 37.39065525154617], [74.8230263987269, 37.51997355972423], [73.07128921275535, 37.73281164514931], [71.93664126275104, 37.74855317588346], [71.56168383081193, 37.52722345367857], [71.57539367675781, 37.5772590637207], [71.4973373413086, 37.5772590637207]]], [[[82.31475830078125, 45.56227111816406], [82.23328399658203, 45.56227111816406], [82.2616195678711, 45.62776184082031], [82.34312438964844, 45.62776184082031], [82.31475830078125, 45.56227111816406]]]]}}]}