{"type":"FeatureCollection","features":[{"type":"Feature","properties":{"Name":"Samanid Empire","FromYear":922,"ToYear":959,"Area":3059839.5405262937,"Type":"POLITY","Wikipedia":"Samanid Empire","Wikidata":"Q486181","SeshatID":"uz_samanid_emp","Components":"","MemberOf":""},"geometry":{"type":"Polygon","coordinates":[[[66.63204956054688,24.843517303466797],[66.67909240722656,25.229267120361328],[66.34514617919922,25.55072784423828],[66.02147674560547,25.357851028442383],[64.8160629272461,25.29355812072754],[64.80064392089844,25.164974212646484],[64.2845230102539,25.229267120361328],[64.22502136230469,25.357851028442383],[63.62620544433594,25.357851028442383],[63.536216735839844,25.229267120361328],[62.563419342041016,25.229267120361328],[62.47393035888672,25.100683212280273],[62.18195724487305,25.164974212646484],[62.01787185668945,25.03639030456543],[61.71868133544922,25.03639030456543],[61.65822219848633,25.164974212646484],[61.12736892700195,25.100683212280273],[60.91714859008789,25.229267120361328],[60.617828369140625,25.229267120361328],[60.63211441040039,25.357851028442383],[59.060218811035156,25.357851028442383],[58.78172302246094,25.55072784423828],[57.957984924316406,25.55072784423828],[57.7402229309082,25.615020751953125],[57.67921447753906,25.743606567382812],[57.37953567504883,25.743606567382812],[57.175662994384766,25.936485290527344],[57.05242156982422,26.836584091186523],[56.909706115722656,26.900876998901367],[56.92487716674805,27.029460906982422],[56.70701217651367,27.093751907348633],[56.714656829833984,27.158044815063477],[56.805274963378906,27.2866268157959],[56.61872482299805,27.608078002929688],[56.46818161010742,27.608078002929688],[56.341392517089844,27.800947189331055],[56.190765380859375,27.800947189331055],[55.988739013671875,27.993812561035156],[55.76267623901367,27.993812561035156],[55.87852096557617,28.315250396728516],[55.752357482910156,28.508106231689453],[55.6014289855957,28.508106231689453],[55.56766128540039,28.829526901245117],[55.43348693847656,28.958093643188477],[55.467735290527344,29.21521759033203],[55.33379364013672,29.34377670288086],[54.888511657714844,29.40805435180664],[54.084781646728516,30.179353713989258],[53.419769287109375,30.307893753051758],[53.017669677734375,30.69350814819336],[52.865718841552734,30.69350814819336],[52.53963851928711,31.079113006591797],[52.387489318847656,31.079113006591797],[52.12848663330078,31.40045166015625],[51.976173400878906,31.40045166015625],[51.927452087402344,31.593257904052734],[51.717185974121094,31.7217960357666],[51.73567581176758,31.8503360748291],[51.592384338378906,31.91460609436035],[51.41944122314453,32.30024337768555],[51.4573860168457,32.557350158691406],[51.7352180480957,32.878753662109375],[52.01839065551758,33.71455001831055],[51.68529510498047,34.03607940673828],[51.70587921142578,34.164703369140625],[51.40837860107422,34.22901916503906],[51.48845291137695,35.194007873535156],[51.03292465209961,35.708900451660156],[51.087215423583984,36.03080368041992],[51.82918167114258,35.837650299072266],[52.02837371826172,35.644527435302734],[52.33797836303711,35.644527435302734],[52.52635192871094,35.837650299072266],[52.81362533569336,35.708900451660156],[54.00981521606445,35.902034759521484],[54.223785400390625,36.2239875793457],[54.08047103881836,36.28839111328125],[53.99694061279297,36.67487716674805],[53.9192008972168,36.67487716674805],[53.95549011230469,36.8681755065918],[54.033294677734375,36.8681755065918],[54.09466552734375,37.1904182434082],[53.91046905517578,37.44829177856445],[53.90790557861328,37.835243225097656],[53.82976150512695,37.835243225097656],[53.98678207397461,38.997230529785156],[53.5175895690918,39.38497543334961],[53.13750457763672,39.449623107910156],[53.54492950439453,39.51427459716797],[53.498451232910156,40.031734466552734],[52.78766632080078,40.031734466552734],[52.778533935546875,40.355369567871094],[52.69942855834961,40.355369567871094],[52.89295959472656,40.873565673828125],[52.97228240966797,40.873565673828125],[52.943321228027344,40.74397277832031],[53.33966064453125,40.74397277832031],[53.448211669921875,40.873565673828125],[53.40435791015625,40.6791877746582],[54.370140075683594,40.74397277832031],[54.38508224487305,40.80876541137695],[56.82743835449219,40.74397277832031],[57.464874267578125,41.39224624633789],[57.56444549560547,41.781593322753906],[57.95698165893555,42.36617660522461],[58.05148696899414,43.016544342041016],[58.337066650390625,43.472347259521484],[58.41754150390625,43.472347259521484],[58.63294982910156,43.6678352355957],[59.1235237121582,43.407203674316406],[60.367706298828125,43.53750228881836],[60.39189529418945,43.342071533203125],[61.008094787597656,42.691246032714844],[61.16832733154297,42.691246032714844],[61.39565658569336,42.36617660522461],[61.55559539794922,42.36617660522461],[61.78269577026367,42.041324615478516],[61.94234848022461,42.041324615478516],[62.18766403198242,41.781593322753906],[62.150997161865234,41.65177917480469],[62.457847595214844,41.32738494873047],[62.38573455810547,41.06801223754883],[62.52660369873047,41.00318908691406],[62.29690933227539,40.74397277832031],[62.4027099609375,40.54964065551758],[62.33325958251953,40.29063034057617],[62.47416305541992,40.225894927978516],[62.50175094604492,40.031734466552734],[62.73868179321289,40.031734466552734],[63.26470947265625,40.225894927978516],[65.35114288330078,40.614410400390625],[65.38835144042969,40.74397277832031],[65.68667602539062,40.6791877746582],[66.27928924560547,40.80876541137695],[66.69296264648438,41.132843017578125],[66.65251922607422,41.26253128051758],[66.89097595214844,41.26253128051758],[68.10958099365234,42.10627746582031],[68.27301025390625,42.36617660522461],[69.50080108642578,43.407203674316406],[70.0003890991211,44.38538360595703],[70.081298828125,44.38538360595703],[71.53759002685547,44.38538360595703],[72.2990951538086,44.25482940673828],[72.41329193115234,44.12431716918945],[72.93101501464844,43.99384307861328],[72.94038391113281,43.79821014404297],[73.13475799560547,43.6678352355957],[73.08744812011719,43.53750228881836],[73.20122528076172,43.407203674316406],[73.36211395263672,43.407203674316406],[73.45219421386719,43.211830139160156],[73.86345672607422,43.016544342041016],[74.01018524169922,42.75628662109375],[74.55728149414062,42.496177673339844],[74.70391845703125,42.236209869384766],[75.19326782226562,42.041324615478516],[75.23721313476562,41.71668243408203],[74.52167510986328,41.26253128051758],[74.35368347167969,41.00318908691406],[73.92140197753906,40.42012023925781],[73.74198913574219,40.355369567871094],[73.80000305175781,40.29063034057617],[73.57305908203125,39.57893371582031],[73.39533996582031,39.51427459716797],[73.6902847290039,39.449623107910156],[73.67021179199219,39.38497543334961],[73.82711791992188,38.60969924926758],[74.06239318847656,38.60969924926758],[74.17975616455078,38.738853454589844],[74.76823425292969,38.60969924926758],[74.88594818115234,38.48057174682617],[74.8084945678711,38.22237777709961],[74.88677215576172,38.22237777709961],[74.88848114013672,37.96426773071289],[75.04723358154297,37.706241607666016],[74.99104309082031,37.51277160644531],[75.2287368774414,37.254878997802734],[75.23312377929688,36.9970588684082],[75.38882446289062,36.9970588684082],[75.48971557617188,36.80373764038086],[75.72306823730469,36.80373764038086],[75.97946166992188,36.61045455932617],[75.99100494384766,36.09519577026367],[76.1703872680664,35.902034759521484],[76.57561492919922,35.9664192199707],[76.61751556396484,35.837650299072266],[76.59979248046875,35.77327346801758],[75.31767272949219,35.32271194458008],[74.75971221923828,35.258358001708984],[74.68243408203125,35.258358001708984],[74.61241912841797,35.58015823364258],[73.43502044677734,35.51579284667969],[73.38522338867188,35.32271194458008],[73.04322814941406,35.194007873535156],[73.02301025390625,34.80794906616211],[72.4638671875,34.10039138793945],[71.95632934570312,33.90746307373047],[71.52877807617188,33.393062591552734],[71.4844970703125,33.20018768310547],[71.59382629394531,33.00732421875],[71.22974395751953,32.75019073486328],[71.17280578613281,32.493072509765625],[70.84602355957031,32.043148040771484],[70.57587250007916,29.94884275309803],[70.565,29.949],[70.27924664157528,29.95434403023164],[70.003,29.812],[69.638,29.361],[68.693,29.191],[68.13159206148322,29.39023856890966],[67.643,29.277],[67.522,29.123],[67.502,28.366],[67.168,27.448],[67.15658170513986,26.09928693063883],[67.03425310803958,25.5534989750413],[66.6714054112437,25.02740957593902],[66.66686433397464,24.86426889276107],[66.66164871750334,24.843517303466797],[66.63204956054688,24.843517303466797]]]}}]}