{
  "type": "FeatureCollection",
  "features": [
    {
      "type": "Feature",
      "properties": {
        "Name": "Seleucid Empire",
        "FromYear": -144,
        "ToYear": -127,
        "Area": 491622.76408913627,
        "Type": "POLITY",
        "Wikipedia": "Seleucid dynasty",
        "Wikidata": "Q705904",
        "SeshatID": "ir_seleucid_emp",
        "Components": "",
        "MemberOf": ""
      },
      "geometry": {
        "type": "MultiPolygon",
        "coordinates": [
          [
            [
              [
                35.38471603393555,
                31.528987884521484
              ],
              [
                35.379249572753906,
                31.464719772338867
              ],
              [
                35.45542526245117,
                31.464719772338867
              ],
              [
                35.50981140136719,
                31.20764923095703
              ],
              [
                35.03211212158203,
                30.950578689575195
              ],
              [
                35.02170944213867,
                30.822044372558594
              ],
              [
                34.69738006591797,
                30.564971923828125
              ],
              [
                34.54549026489258,
                30.564971923828125
              ],
              [
                34.2972412109375,
                31.271915435791016
              ],
              [
                34.30241012573242,
                31.336183547973633
              ],
              [
                34.546607971191406,
                31.528987884521484
              ],
              [
                34.6388053894043,
                31.7217960357666
              ],
              [
                34.57329559326172,
                31.8503360748291
              ],
              [
                34.73672866821289,
                31.978878021240234
              ],
              [
                34.81304168701172,
                31.978878021240234
              ],
              [
                34.802127838134766,
                31.8503360748291
              ],
              [
                35.23778533935547,
                31.593257904052734
              ],
              [
                35.31399154663086,
                31.593257904052734
              ],
              [
                35.30852508544922,
                31.528987884521484
              ],
              [
                35.38471603393555,
                31.528987884521484
              ]
            ]
          ],
          [
            [
              [
                34.88935470581055,
                31.978878021240234
              ],
              [
                34.81304168701172,
                31.978878021240234
              ],
              [
                34.76983642578125,
                32.36451721191406
              ],
              [
                34.84067153930664,
                32.30024337768555
              ],
              [
                34.91707229614258,
                32.30024337768555
              ],
              [
                34.88935470581055,
                31.978878021240234
              ]
            ]
          ],
          [
            [
              [
                45.1176643371582,
                36.03080368041992
              ],
              [
                45.1951904296875,
                36.03080368041992
              ],
              [
                45.217079162597656,
                35.644527435302734
              ],
              [
                46.03102111816406,
                35.38706970214844
              ],
              [
                47.95417022705078,
                35.32271194458008
              ],
              [
                48.707191467285156,
                35.194007873535156
              ],
              [
                48.715301513671875,
                34.743614196777344
              ],
              [
                48.84993362426758,
                34.614952087402344
              ],
              [
                48.859134674072266,
                34.164703369140625
              ],
              [
                48.936073303222656,
                34.164703369140625
              ],
              [
                48.89781188964844,
                33.90746307373047
              ],
              [
                48.62964630126953,
                33.65024948120117
              ],
              [
                48.59251022338867,
                33.393062591552734
              ],
              [
                48.86237716674805,
                33.13589859008789
              ],
              [
                48.911529541015625,
                32.94303894042969
              ],
              [
                48.74930191040039,
                32.878753662109375
              ],
              [
                48.61426544189453,
                33.00732421875
              ],
              [
                48.07807540893555,
                33.00732421875
              ],
              [
                47.974830627441406,
                32.81447219848633
              ],
              [
                47.82174301147461,
                32.81447219848633
              ],
              [
                47.559574127197266,
                33.13589859008789
              ],
              [
                46.67476272583008,
                33.393062591552734
              ],
              [
                46.71001052856445,
                33.65024948120117
              ],
              [
                46.420501708984375,
                33.77885055541992
              ],
              [
                46.225379943847656,
                34.03607940673828
              ],
              [
                45.91777801513672,
                34.03607940673828
              ],
              [
                45.97706604003906,
                33.90746307373047
              ],
              [
                45.856727600097656,
                33.5859489440918
              ],
              [
                46.069705963134766,
                33.45735549926758
              ],
              [
                46.052490234375,
                33.32876968383789
              ],
              [
                45.899105072021484,
                33.32876968383789
              ],
              [
                45.46541976928711,
                32.94303894042969
              ],
              [
                45.09897232055664,
                33.07160949707031
              ],
              [
                44.631141662597656,
                33.00732421875
              ],
              [
                44.57079315185547,
                33.13589859008789
              ],
              [
                43.965721130371094,
                33.20018768310547
              ],
              [
                44.17155075073242,
                33.00732421875
              ],
              [
                44.208351135253906,
                32.685909271240234
              ],
              [
                43.91015625,
                32.75019073486328
              ],
              [
                43.42790222167969,
                32.557350158691406
              ],
              [
                43.3514289855957,
                32.557350158691406
              ],
              [
                43.152584075927734,
                32.81447219848633
              ],
              [
                42.708534240722656,
                32.94303894042969
              ],
              [
                42.578269958496094,
                33.13589859008789
              ],
              [
                41.48860549926758,
                33.65024948120117
              ],
              [
                41.211639404296875,
                33.90746307373047
              ],
              [
                40.91171646118164,
                33.971771240234375
              ],
              [
                40.84990692138672,
                34.10039138793945
              ],
              [
                40.31147003173828,
                34.10039138793945
              ],
              [
                40.403316497802734,
                34.22901916503906
              ],
              [
                40.25685501098633,
                34.2933349609375
              ],
              [
                39.12379455566406,
                34.48630142211914
              ],
              [
                37.990238189697266,
                33.971771240234375
              ],
              [
                37.73945236206055,
                33.77885055541992
              ],
              [
                37.72612380981445,
                33.65024948120117
              ],
              [
                37.57255172729492,
                33.65024948120117
              ],
              [
                37.0732307434082,
                33.26447677612305
              ],
              [
                37.054195404052734,
                33.07160949707031
              ],
              [
                36.90095901489258,
                33.07160949707031
              ],
              [
                36.81186294555664,
                32.94303894042969
              ],
              [
                36.698429107666016,
                32.557350158691406
              ],
              [
                36.692359924316406,
                32.493072509765625
              ],
              [
                36.551544189453125,
                32.62162780761719
              ],
              [
                36.010189056396484,
                32.557350158691406
              ],
              [
                35.82807540893555,
                32.23596954345703
              ],
              [
                35.604671478271484,
                32.30024337768555
              ],
              [
                35.58750534057617,
                32.107421875
              ],
              [
                35.358463287353516,
                32.107421875
              ],
              [
                35.22267150878906,
                32.30024337768555
              ],
              [
                34.91707229614258,
                32.30024337768555
              ],
              [
                34.922672271728516,
                32.36451721191406
              ],
              [
                34.846256256103516,
                32.36451721191406
              ],
              [
                34.863121032714844,
                32.557350158691406
              ],
              [
                35.021759033203125,
                32.62162780761719
              ],
              [
                35.05632781982422,
                33.00732421875
              ],
              [
                35.21538543701172,
                33.07160949707031
              ],
              [
                35.39840316772461,
                33.393062591552734
              ],
              [
                35.34577560424805,
                33.65024948120117
              ],
              [
                35.49934768676758,
                33.65024948120117
              ],
              [
                35.4470100402832,
                33.90746307373047
              ],
              [
                35.68381118774414,
                33.971771240234375
              ],
              [
                35.64447784423828,
                34.3576545715332
              ],
              [
                35.79212951660156,
                34.2933349609375
              ],
              [
                36.048770904541016,
                34.55062484741211
              ],
              [
                36.0682373046875,
                34.743614196777344
              ],
              [
                35.92698669433594,
                34.87228775024414
              ],
              [
                35.959747314453125,
                35.194007873535156
              ],
              [
                35.88248825073242,
                35.194007873535156
              ],
              [
                35.99294662475586,
                35.51579284667969
              ],
              [
                35.84488296508789,
                35.58015823364258
              ],
              [
                35.990074157714844,
                36.2239875793457
              ],
              [
                35.84174346923828,
                36.28839111328125
              ],
              [
                36.26490020751953,
                36.61045455932617
              ],
              [
                36.28622817993164,
                36.80373764038086
              ],
              [
                36.144901275634766,
                36.932613372802734
              ],
              [
                36.05996322631836,
                36.8681755065918
              ],
              [
                35.982154846191406,
                36.8681755065918
              ],
              [
                35.99635696411133,
                36.9970588684082
              ],
              [
                36.159236907958984,
                37.06150817871094
              ],
              [
                37.197532653808594,
                36.61045455932617
              ],
              [
                37.52330017089844,
                36.73930740356445
              ],
              [
                37.60106658935547,
                36.73930740356445
              ],
              [
                38.16073989868164,
                36.8681755065918
              ],
              [
                38.176177978515625,
                36.9970588684082
              ],
              [
                37.95802688598633,
                37.12596130371094
              ],
              [
                37.989139556884766,
                37.38381576538086
              ],
              [
                37.63813400268555,
                37.706241607666016
              ],
              [
                37.76396560668945,
                38.09331130981445
              ],
              [
                38.147010803222656,
                38.028785705566406
              ],
              [
                38.31162643432617,
                38.09331130981445
              ],
              [
                38.42300796508789,
                38.351463317871094
              ],
              [
                38.65800094604492,
                38.351463317871094
              ],
              [
                38.86766815185547,
                38.157840728759766
              ],
              [
                39.18071365356445,
                38.157840728759766
              ],
              [
                39.380306243896484,
                38.48057174682617
              ],
              [
                40.137447357177734,
                38.28691864013672
              ],
              [
                40.215755462646484,
                38.28691864013672
              ],
              [
                40.294063568115234,
                38.28691864013672
              ],
              [
                40.372371673583984,
                38.28691864013672
              ],
              [
                40.45067596435547,
                38.28691864013672
              ],
              [
                40.44176483154297,
                38.22237777709961
              ],
              [
                40.520050048828125,
                38.22237777709961
              ],
              [
                40.598331451416016,
                38.22237777709961
              ],
              [
                40.57164001464844,
                38.028785705566406
              ],
              [
                41.66663360595703,
                38.028785705566406
              ],
              [
                41.96101379394531,
                37.89975357055664
              ],
              [
                42.50818634033203,
                37.89975357055664
              ],
              [
                43.94475173950195,
                37.5772590637207
              ],
              [
                44.41306686401367,
                37.5772590637207
              ],
              [
                44.773807525634766,
                37.38381576538086
              ],
              [
                44.74457931518555,
                37.1904182434082
              ],
              [
                44.871337890625,
                36.9970588684082
              ],
              [
                45.2508544921875,
                36.932613372802734
              ],
              [
                45.1176643371582,
                36.03080368041992
              ]
            ]
          ]
        ]
      }
    }
  ]
}