{"type":"FeatureCollection","features":[{"type":"Feature","properties":{"Name":"Seleucid Empire","FromYear":-126,"ToYear":-111,"Area":222679.04398874624,"Type":"POLITY","Wikipedia":"Seleucid dynasty","Wikidata":"Q705904","SeshatID":"ir_seleucid_emp","Components":"","MemberOf":"","DisplayYear":-122,"Source":"Cliopatria / Seshat Global History Databank"},"geometry":{"type":"Polygon","coordinates":[[[41.96101379394531,37.89975357055664],[41.66663360595703,38.028785705566406],[40.57164001464844,38.028785705566406],[40.598331451416016,38.22237777709961],[40.520050048828125,38.22237777709961],[40.44176483154297,38.22237777709961],[40.45067596435547,38.28691864013672],[40.372371673583984,38.28691864013672],[40.294063568115234,38.28691864013672],[40.215755462646484,38.28691864013672],[40.137447357177734,38.28691864013672],[39.380306243896484,38.48057174682617],[39.18071365356445,38.157840728759766],[38.86766815185547,38.157840728759766],[38.65800094604492,38.351463317871094],[38.42300796508789,38.351463317871094],[38.31162643432617,38.09331130981445],[38.147010803222656,38.028785705566406],[37.76396560668945,38.09331130981445],[37.63813400268555,37.706241607666016],[37.989139556884766,37.38381576538086],[37.95802688598633,37.12596130371094],[38.176177978515625,36.9970588684082],[38.16073989868164,36.8681755065918],[37.60106658935547,36.73930740356445],[37.52330017089844,36.73930740356445],[37.197532653808594,36.61045455932617],[36.159236907958984,37.06150817871094],[35.99635696411133,36.9970588684082],[35.982154846191406,36.8681755065918],[36.05996322631836,36.8681755065918],[36.144901275634766,36.932613372802734],[36.28622817993164,36.80373764038086],[36.26490020751953,36.61045455932617],[35.84174346923828,36.28839111328125],[35.990074157714844,36.2239875793457],[35.84488296508789,35.58015823364258],[35.99294662475586,35.51579284667969],[35.88248825073242,35.194007873535156],[35.959747314453125,35.194007873535156],[35.92698669433594,34.87228775024414],[36.0682373046875,34.743614196777344],[36.048770904541016,34.55062484741211],[35.79212951660156,34.2933349609375],[35.64447784423828,34.3576545715332],[35.68381118774414,33.971771240234375],[35.4470100402832,33.90746307373047],[35.49934768676758,33.65024948120117],[35.34577560424805,33.65024948120117],[35.39840316772461,33.393062591552734],[35.21538543701172,33.07160949707031],[35.05632781982422,33.00732421875],[35.021759033203125,32.62162780761719],[34.863121032714844,32.557350158691406],[34.846256256103516,32.36451721191406],[34.922672271728516,32.36451721191406],[35.316200256347656,32.493072509765625],[35.49821853637695,32.81447219848633],[35.786651611328125,32.62162780761719],[35.845516204833984,32.428794860839844],[36.32207489013672,32.62162780761719],[36.551544189453125,32.62162780761719],[36.692359924316406,32.493072509765625],[36.698429107666016,32.557350158691406],[36.81186294555664,32.94303894042969],[36.90095901489258,33.07160949707031],[37.054195404052734,33.07160949707031],[37.0732307434082,33.26447677612305],[38.47935485839844,34.22901916503906],[39.12379455566406,34.48630142211914],[39.50897979736328,34.48630142211914],[40.403316497802734,34.22901916503906],[40.31147003173828,34.10039138793945],[40.472782135009766,34.164703369140625],[40.549720764160156,34.164703369140625],[40.5335578918457,35.32271194458008],[40.61085510253906,35.32271194458008],[40.6744270324707,35.837650299072266],[40.86186218261719,36.09519577026367],[41.46357727050781,36.5460319519043],[42.11130905151367,36.73930740356445],[42.311195373535156,37.06150817871094],[42.553836822509766,37.12596130371094],[42.73701858520508,37.3193473815918],[43.282752990722656,37.3193473815918],[43.5736083984375,37.706241607666016],[41.96101379394531,37.89975357055664]]]}}]}
