{"type": "FeatureCollection", "features": [{"type": "Feature", "properties": {"Name": "Umayyad Caliphate", "FromYear": 724, "ToYear": 731, "Area": 9846552.853086632, "Type": "POLITY", "Wikipedia": "Umayyad Caliphate", "Wikidata": "Q8575586", "SeshatID": "sy_umayyad_cal", "Components": "", "MemberOf": ""}, "geometry": {"type": "MultiPolygon", "coordinates": [[[[42.02386474609375, 16.807586669921875], [42.17127227783203, 16.807586669921875], [42.23801040649414, 16.67901039123535], [42.23453903198242, 16.614723205566406], [42.01349639892578, 16.614723205566406], [42.02386474609375, 16.807586669921875]]], [[[61.39565658569336, 42.36617660522461], [61.55559539794922, 42.36617660522461], [61.78269577026367, 42.041324615478516], [61.94234848022461, 42.041324615478516], [62.18766403198242, 41.781593322753906], [62.150997161865234, 41.65177917480469], [62.353336334228516, 41.521995544433594], [62.31693649291992, 41.39224624633789], [62.39647674560547, 41.39224624633789], [62.28076171875, 41.26253128051758], [62.52660369873047, 41.00318908691406], [62.29690933227539, 40.74397277832031], [62.4027099609375, 40.54964065551758], [62.33325958251953, 40.29063034057617], [62.47416305541992, 40.225894927978516], [62.50175094604492, 40.031734466552734], [62.580726623535156, 40.031734466552734], [62.65380859375, 39.70827102661133], [63.088340759277344, 39.25570297241211], [63.24568557739258, 39.25570297241211], [63.41547393798828, 38.997230529785156], [63.837432861328125, 38.80344009399414], [64.00749206542969, 38.54513168334961], [64.36690521240234, 38.416015625], [64.66151428222656, 38.028785705566406], [65.23883056640625, 37.835243225097656], [65.62744903564453, 37.51277160644531], [66.51548767089844, 37.3193473815918], [66.99945068359375, 37.38381576538086], [67.12300109863281, 37.254878997802734], [67.74652099609375, 37.254878997802734], [67.91515350341797, 36.9970588684082], [68.1487045288086, 36.9970588684082], [68.7763900756836, 37.3193473815918], [69.0102767944336, 37.3193473815918], [69.1160659790039, 37.12596130371094], [69.3497543334961, 37.12596130371094], [69.5460205078125, 37.5772590637207], [70.07515716552734, 37.51277160644531], [70.26583862304688, 37.641746520996094], [70.16192626953125, 37.835243225097656], [70.2146987915039, 38.028785705566406], [70.71366119384766, 38.416015625], [71.18379211425781, 38.416015625], [71.30390930175781, 38.28691864013672], [71.27379608154297, 37.89975357055664], [71.56851959228516, 37.835243225097656], [71.47911071777344, 36.932613372802734], [70.24481964111328, 36.67487716674805], [69.00096130371094, 36.67487716674805], [68.59612274169922, 36.61045455932617], [68.48634338378906, 36.48161697387695], [67.80307006835938, 36.5460319519043], [67.0726089477539, 36.417205810546875], [66.90264892578125, 36.03080368041992], [66.71727752685547, 35.902034759521484], [66.36996459960938, 35.065311431884766], [65.9326400756836, 34.48630142211914], [64.74481201171875, 33.971771240234375], [64.35743713378906, 33.5859489440918], [64.25321197509766, 33.07160949707031], [64.32982635498047, 33.07160949707031], [64.27862548828125, 32.81447219848633], [64.35517120361328, 32.81447219848633], [64.2155532836914, 32.493072509765625], [64.20536041259766, 32.043148040771484], [64.28169250488281, 32.043148040771484], [64.24940490722656, 31.464719772338867], [64.32557678222656, 31.464719772338867], [64.46001434326172, 30.950578689575195], [64.58895874023438, 30.822044372558594], [65.62966918945312, 30.69350814819336], [66.34252166748047, 30.436433792114258], [67.165771484375, 30.372163772583008], [67.15403747558594, 30.307893753051758], [70.20398712158203, 29.986536026000977], [71.07699584960938, 29.79371452331543], [71.26799011230469, 29.600887298583984], [71.18519592285156, 29.150936126708984], [70.95394897460938, 28.700960159301758], [70.46717071533203, 28.058101654052734], [70.21991729736328, 27.92952537536621], [70.00714874267578, 27.54378890991211], [69.84648132324219, 27.4794979095459], [69.56114196777344, 27.093751907348633], [69.52240753173828, 26.836584091186523], [69.26862335205078, 26.643707275390625], [69.24064636230469, 26.450830459594727], [68.7934341430664, 25.936485290527344], [68.76724243164062, 25.743606567382812], [68.30902862548828, 25.100683212280273], [68.15132904052734, 25.03639030456543], [67.95437622070312, 24.650644302368164], [67.36372375488281, 24.07203483581543], [67.28907775878906, 24.07203483581543], [67.32612609863281, 24.393482208251953], [67.25143432617188, 24.393482208251953], [67.2146987915039, 24.714935302734375], [66.63204956054688, 24.843517303466797], [66.67909240722656, 25.229267120361328], [66.34514617919922, 25.55072784423828], [66.02147674560547, 25.357851028442383], [64.8160629272461, 25.29355812072754], [64.80064392089844, 25.164974212646484], [64.2845230102539, 25.229267120361328], [64.22502136230469, 25.357851028442383], [63.62620544433594, 25.357851028442383], [63.536216735839844, 25.229267120361328], [62.563419342041016, 25.229267120361328], [62.47393035888672, 25.100683212280273], [62.18195724487305, 25.164974212646484], [62.01787185668945, 25.03639030456543], [61.71868133544922, 25.03639030456543], [61.65822219848633, 25.164974212646484], [61.12736892700195, 25.100683212280273], [60.91714859008789, 25.229267120361328], [60.617828369140625, 25.229267120361328], [60.63211441040039, 25.357851028442383], [59.060218811035156, 25.357851028442383], [58.78172302246094, 25.55072784423828], [57.957984924316406, 25.55072784423828], [57.7402229309082, 25.615020751953125], [57.67921447753906, 25.743606567382812], [57.37953567504883, 25.743606567382812], [57.11480712890625, 26.06507110595703], [57.05242156982422, 26.836584091186523], [56.714656829833984, 27.158044815063477], [56.188377380371094, 27.158044815063477], [56.098140716552734, 27.029460906982422], [56.32361602783203, 27.029460906982422], [56.30864334106445, 26.900876998901367], [56.06119155883789, 26.70800018310547], [55.60341262817383, 26.643707275390625], [55.439002990722656, 26.515121459960938], [55.28888702392578, 26.515121459960938], [55.31023025512695, 26.70800018310547], [55.542747497558594, 26.772293090820312], [55.242313385009766, 26.772293090820312], [54.83156204223633, 26.450830459594727], [54.463233947753906, 26.515121459960938], [54.25889205932617, 26.70800018310547], [53.65812301635742, 26.70800018310547], [53.46059036254883, 26.96516990661621], [52.736968994140625, 27.222335815429688], [52.478694915771484, 27.608078002929688], [52.04855728149414, 27.800947189331055], [51.5966796875, 27.800947189331055], [51.31684494018555, 27.993812561035156], [51.331298828125, 28.12238883972168], [51.06624984741211, 28.44382095336914], [51.028076171875, 28.765243530273438], [50.80903244018555, 28.829526901245117], [50.9150390625, 29.08665657043457], [50.620323181152344, 29.150936126708984], [50.65126037597656, 29.40805435180664], [50.23628234863281, 29.729440689086914], [50.0648078918457, 30.179353713989258], [49.585899353027344, 29.986536026000977], [48.942848205566406, 30.307893753051758], [48.987266540527344, 30.050809860229492], [48.903682708740234, 29.986536026000977], [48.36544418334961, 29.922264099121094], [48.40353012084961, 29.600887298583984], [47.8662223815918, 29.536611557006836], [47.85165023803711, 29.40805435180664], [48.078643798828125, 29.40805435180664], [48.21538543701172, 29.279497146606445], [48.19374465942383, 29.08665657043457], [48.460411071777344, 28.765243530273438], [48.562652587890625, 28.315250396728516], [48.974143981933594, 27.92952537536621], [48.87215805053711, 27.6723690032959], [49.241947174072266, 27.608078002929688], [49.35963439941406, 27.2866268157959], [50.13496398925781, 26.772293090820312], [50.11603546142578, 26.57941436767578], [50.2536735534668, 26.450830459594727], [50.22300720214844, 26.129364013671875], [50.067020416259766, 26.06507110595703], [50.21097183227539, 26.000778198242188], [50.325462341308594, 25.615020751953125], [50.60764694213867, 25.422143936157227], [50.654117584228516, 25.100683212280273], [50.72892761230469, 25.100683212280273], [50.768985748291016, 25.55072784423828], [50.92463302612305, 25.615020751953125], [50.95453643798828, 25.936485290527344], [51.12286376953125, 26.129364013671875], [51.42281723022461, 26.129364013671875], [51.697906494140625, 25.8721923828125], [51.574989318847656, 25.357851028442383], [51.71883010864258, 25.29355812072754], [51.69002151489258, 24.97209930419922], [51.52363204956055, 24.779226303100586], [51.41082000732422, 24.329193115234375], [51.85354995727539, 24.264904022216797], [51.90695571899414, 24.00774574279785], [52.28013229370117, 24.00774574279785], [52.60029602050781, 24.264904022216797], [53.11201095581055, 24.136323928833008], [54.082523345947266, 24.136323928833008], [54.099464416503906, 24.329193115234375], [54.31781005859375, 24.264904022216797], [54.55914306640625, 24.457773208618164], [54.74416732788086, 24.843517303466797], [55.14265441894531, 25.100683212280273], [55.41188049316406, 25.55072784423828], [55.9695930480957, 25.8721923828125], [56.16815948486328, 26.32224464416504], [56.47541046142578, 26.386537551879883], [56.543277740478516, 26.32224464416504], [56.38539123535156, 25.55072784423828], [56.46027374267578, 25.55072784423828], [56.42084503173828, 25.164974212646484], [56.495662689208984, 25.164974212646484], [56.401641845703125, 24.97209930419922], [56.54487228393555, 24.907808303833008], [56.78811264038086, 24.329193115234375], [57.49265670776367, 23.879167556762695], [58.811527252197266, 23.622013092041016], [59.08000183105469, 23.30057144165039], [59.0682487487793, 23.171995162963867], [59.280067443847656, 23.043420791625977], [59.2684440612793, 22.914846420288086], [59.543212890625, 22.657697677612305], [59.903873443603516, 22.529123306274414], [59.864044189453125, 22.079116821289062], [59.436954498291016, 21.43625259399414], [58.799705505371094, 20.921964645385742], [58.608638763427734, 20.40767478942871], [58.30677032470703, 20.343387603759766], [58.24849319458008, 20.53624725341797], [58.10017395019531, 20.53624725341797], [57.93083953857422, 20.279102325439453], [57.79355239868164, 19.507661819458008], [57.867584228515625, 19.507661819458008], [57.899253845214844, 18.993366241455078], [56.99609375, 18.800504684448242], [56.75362777709961, 18.543354034423828], [56.64381790161133, 18.093341827392578], [56.40702438354492, 17.90047836303711], [55.58990478515625, 17.836191177368164], [55.348690032958984, 17.57904052734375], [55.31448745727539, 17.129026412963867], [55.15735626220703, 17.000450134277344], [54.19893264770508, 17.000450134277344], [53.58598709106445, 16.67901039123535], [53.21754837036133, 16.67901039123535], [53.13477325439453, 16.550434112548828], [52.380313873291016, 16.293283462524414], [52.25921630859375, 15.586114883422852], [52.10369110107422, 15.457538604736328], [51.883026123046875, 15.457538604736328], [51.27429962158203, 15.136098861694336], [50.75569152832031, 15.07181167602539], [50.22562789916992, 14.81466007232666], [49.409767150878906, 14.686083793640137], [48.7861213684082, 14.043206214904785], [47.75149917602539, 13.914630889892578], [47.668033599853516, 13.721768379211426], [47.06792449951172, 13.464617729187012], [45.74114990234375, 13.336042404174805], [45.05411911010742, 12.757453918457031], [44.614288330078125, 12.757453918457031], [44.38864517211914, 12.628878593444824], [43.438602447509766, 12.69316577911377], [43.44704818725586, 12.886029243469238], [43.23561477661133, 13.07889175415039], [43.26481628417969, 13.721768379211426], [43.056640625, 13.97891902923584], [42.95337677001953, 14.878947257995605], [42.88957214355469, 15.07181167602539], [42.74578857421875, 15.136098861694336], [42.70881652832031, 15.843266487121582], [42.78240966796875, 15.843266487121582], [42.8239860534668, 16.614723205566406], [42.476654052734375, 17.000450134277344], [42.48373794555664, 17.129026412963867], [42.33625793457031, 17.129026412963867], [42.28022766113281, 17.450464248657227], [41.784889221191406, 17.836191177368164], [41.45082092285156, 18.479066848754883], [41.23610305786133, 18.607641220092773], [41.25007629394531, 18.864791870117188], [41.04209899902344, 19.12194061279297], [40.985382080078125, 19.443374633789062], [40.84076690673828, 19.507661819458008], [40.85103988647461, 19.700523376464844], [40.561588287353516, 19.8290958404541], [40.14036178588867, 20.279102325439453], [39.84385299682617, 20.279102325439453], [39.35056686401367, 20.793392181396484], [39.14701461791992, 21.179107666015625], [39.16929626464844, 21.629112243652344], [39.02705764770508, 21.7576847076416], [39.14019775390625, 22.529123306274414], [38.8588752746582, 22.85055923461914], [38.86882400512695, 23.043420791625977], [38.60107421875, 23.622013092041016], [38.03175354003906, 24.136323928833008], [37.444801330566406, 24.329193115234375], [37.38759231567383, 24.650644302368164], [37.17045593261719, 24.779226303100586], [37.1776123046875, 24.907808303833008], [37.3307991027832, 24.97209930419922], [37.27071762084961, 25.229267120361328], [36.772972106933594, 25.67931365966797], [36.7172966003418, 26.000778198242188], [36.42910385131836, 26.19365882873535], [36.16486358642578, 26.772293090820312], [35.671688079833984, 27.2866268157959], [35.61323928833008, 27.54378890991211], [35.46693801879883, 27.608078002929688], [35.40869903564453, 27.865236282348633], [35.04917907714844, 28.12238883972168], [34.59267044067383, 28.058101654052734], [34.60541915893555, 28.25096321105957], [34.853519439697266, 28.572391510009766], [34.91290283203125, 29.40805435180664], [34.75225830078125, 29.279497146606445], [34.517303466796875, 28.058101654052734], [34.35825729370117, 27.92952537536621], [34.345943450927734, 27.736658096313477], [34.12004470825195, 27.736658096313477], [33.6169548034668, 28.12238883972168], [33.553810119628906, 28.315250396728516], [33.40296936035156, 28.315250396728516], [33.18891525268555, 28.508106231689453], [33.213871002197266, 28.893810272216797], [32.857112884521484, 29.21521759033203], [32.52609634399414, 29.922264099121094], [32.428688049316406, 29.600887298583984], [32.638694763183594, 29.34377670288086], [32.68916320800781, 28.958093643188477], [32.83612823486328, 28.893810272216797], [33.10531997680664, 28.379535675048828], [33.60887145996094, 27.993812561035156], [33.585105895996094, 27.608078002929688], [33.7991943359375, 27.41520881652832], [33.92659378051758, 27.029460906982422], [34.07311248779297, 26.96516990661621], [34.05074691772461, 26.57941436767578], [34.197208404541016, 26.515121459960938], [34.461280822753906, 25.8721923828125], [34.60763931274414, 25.807899475097656], [35.145530700683594, 24.650644302368164], [35.860408782958984, 24.00774574279785], [35.85411834716797, 23.879167556762695], [35.558753967285156, 23.943456649780273], [35.55257034301758, 23.814878463745117], [35.10795974731445, 23.879167556762695], [33.75636291503906, 23.68630027770996], [33.6817741394043, 23.68630027770996], [33.38899612426758, 23.814878463745117], [32.040863037109375, 23.68630027770996], [31.670488357543945, 23.75058937072754], [30.537214279174805, 23.36486053466797], [30.462675094604492, 23.36486053466797], [30.39519500732422, 23.557723999023438], [30.10396385192871, 23.75058937072754], [30.10871124267578, 23.879167556762695], [29.95948028564453, 23.879167556762695], [29.672801971435547, 24.200613021850586], [28.568815231323242, 24.650644302368164], [28.288646697998047, 25.164974212646484], [28.24367904663086, 25.936485290527344], [28.34531593322754, 26.57941436767578], [28.270244598388672, 26.57941436767578], [28.15372657775879, 27.35091781616211], [27.93669891357422, 27.54378890991211], [27.710918426513672, 27.54378890991211], [27.791961669921875, 27.6723690032959], [27.429920196533203, 27.993812561035156], [27.27633285522461, 27.92952537536621], [27.28502082824707, 28.12238883972168], [27.140071868896484, 28.25096321105957], [25.586284637451172, 28.958093643188477], [25.37345314025879, 29.279497146606445], [25.14654541015625, 29.279497146606445], [25.000762939453125, 29.40805435180664], [24.846712112426758, 29.34377670288086], [24.779218673706055, 29.536611557006836], [23.737483978271484, 29.986536026000977], [22.451210021972656, 30.050809860229492], [21.231840133666992, 29.857990264892578], [20.156391143798828, 29.34377670288086], [19.929441452026367, 29.34377670288086], [18.70717430114746, 28.829526901245117], [18.704288482666016, 28.700960159301758], [18.402267456054688, 28.700960159301758], [18.32539939880371, 28.636676788330078], [18.398162841796875, 28.508106231689453], [18.01956558227539, 28.44382095336914], [16.794357299804688, 27.2866268157959], [16.643939971923828, 27.2866268157959], [16.33967399597168, 27.029460906982422], [16.413124084472656, 26.900876998901367], [15.809109687805176, 26.643707275390625], [14.455116271972656, 26.32224464416504], [14.078316688537598, 26.06507110595703], [13.32796573638916, 25.936485290527344], [12.578608512878418, 26.000778198242188], [11.979154586791992, 26.19365882873535], [11.829442977905273, 26.450830459594727], [11.604301452636719, 26.450830459594727], [11.454283714294434, 26.70800018310547], [11.304094314575195, 26.643707275390625], [11.153827667236328, 26.900876998901367], [11.003561973571777, 26.900876998901367], [10.25071907043457, 27.4794979095459], [10.100224494934082, 27.4794979095459], [10.174939155578613, 27.6723690032959], [10.099653244018555, 27.6723690032959], [10.09908676147461, 27.865236282348633], [9.948649406433105, 27.800947189331055], [9.871971130371094, 28.186676025390625], [9.796577453613281, 28.186676025390625], [9.795141220092773, 28.572391510009766], [9.492347717285156, 28.765243530273438], [9.340015411376953, 29.022375106811523], [8.130226135253906, 29.08665657043457], [7.829087734222412, 28.958093643188477], [6.544524669647217, 28.958093643188477], [4.359540939331055, 28.636676788330078], [2.472262620925903, 28.636676788330078], [1.796299934387207, 28.508106231689453], [1.037930965423584, 28.636676788330078], [-0.245418235659599, 28.636676788330078], [-1.08497941493988, 28.893810272216797], [-1.462720036506653, 28.893810272216797], [-1.391920328140259, 29.022375106811523], [-3.61224889755249, 29.665164947509766], [-5.143001079559326, 29.986536026000977], [-5.976820945739746, 29.986536026000977], [-6.50034236907959, 29.857990264892578], [-8.027345657348633, 30.050809860229492], [-8.03514289855957, 30.179353713989258], [-8.650039672851562, 30.307893753051758], [-9.636479377746582, 30.307893753051758], [-9.649378776550293, 30.500701904296875], [-9.881543159484863, 30.564971923828125], [-9.859257698059082, 31.336183547973633], [-9.783116340637207, 31.336183547973633], [-9.734487533569336, 31.7217960357666], [-9.5149564743042, 31.8503360748291], [-9.52421760559082, 31.978878021240234], [-9.309136390686035, 32.171695709228516], [-9.332544326782227, 32.493072509765625], [-9.198505401611328, 32.75019073486328], [-8.551655769348145, 33.32876968383789], [-7.129902839660645, 33.84315490722656], [-7.062007427215576, 33.971771240234375], [-6.90380334854126, 33.90746307373047], [-6.613898754119873, 34.164703369140625], [-6.699729919433594, 34.2933349609375], [-6.473203659057617, 34.3576545715332], [-6.482059955596924, 34.48630142211914], [-6.332395076751709, 34.55062484741211], [-6.277484893798828, 34.87228775024414], [-6.200328826904297, 34.87228775024414], [-6.290933609008789, 35.065311431884766], [-6.132044315338135, 35.00096893310547], [-6.14545202255249, 35.194007873535156], [-5.999861240386963, 35.32271194458008], [-5.876633644104004, 35.77327346801758], [-5.338923931121826, 35.837650299072266], [-5.239750862121582, 35.51579284667969], [-4.754821300506592, 35.194007873535156], [-3.132419347763062, 35.194007873535156], [-2.981565713882446, 35.258358001708984], [-2.992615222930908, 35.45143127441406], [-2.837937116622925, 35.45143127441406], [-2.819781064987183, 35.12965774536133], [-2.661749362945557, 35.065311431884766], [-1.889582633972168, 35.065311431884766], [-1.590568661689758, 35.258358001708984], [-1.358735799789429, 35.258358001708984], [-1.136477708816528, 35.45143127441406], [-1.223541498184204, 35.644527435302734], [-1.065529465675354, 35.58015823364258], [-0.917115688323975, 35.708900451660156], [-0.530006587505341, 35.708900451660156], [-0.458719998598099, 35.837650299072266], [0.083524890244007, 35.837650299072266], [0.376142233610153, 36.2239875793457], [0.683685302734375, 36.28839111328125], [0.678023815155029, 36.417205810546875], [0.913757801055908, 36.3527946472168], [1.216211557388306, 36.5460319519043], [1.529616475105286, 36.48161697387695], [2.376901149749756, 36.67487716674805], [2.690169095993042, 36.61045455932617], [2.841080188751221, 36.73930740356445], [3.229894161224365, 36.73930740356445], [3.458978891372681, 36.8681755065918], [3.850007295608521, 36.80373764038086], [4.235154151916504, 36.932613372802734], [4.859498500823975, 36.8681755065918], [5.097836971282959, 36.67487716674805], [5.56428337097168, 36.67487716674805], [5.639055728912354, 36.80373764038086], [6.105763912200928, 36.80373764038086], [6.103042125701904, 36.932613372802734], [6.333924293518066, 37.06150817871094], [6.804664611816406, 36.8681755065918], [7.193697929382324, 36.8681755065918], [7.346271514892578, 37.06150817871094], [7.502017498016357, 37.06150817871094], [7.738344192504883, 36.8681755065918], [8.516410827636719, 36.8681755065918], [8.903155326843262, 37.12596130371094], [9.05947494506836, 37.06150817871094], [9.36964225769043, 37.254878997802734], [9.759011268615723, 37.3193473815918], [9.993423461914062, 37.1904182434082], [10.226980209350586, 37.254878997802734], [10.227567672729492, 37.06150817871094], [10.305440902709961, 37.06150817871094], [10.228352546691895, 36.80373764038086], [10.461837768554688, 36.73930740356445], [11.006271362304688, 36.9970588684082], [11.006199836730957, 36.80373764038086], [10.462488174438477, 36.417205810546875], [10.540250778198242, 36.3527946472168], [10.463515281677246, 35.902034759521484], [10.69615650177002, 35.708900451660156], [10.850979804992676, 35.77327346801758], [10.928420066833496, 35.58015823364258], [11.08318042755127, 35.58015823364258], [11.083049774169922, 35.38706970214844], [11.005731582641602, 35.38706970214844], [11.082771301269531, 35.00096893310547], [10.85119342803955, 34.93662643432617], [10.851213455200195, 34.80794906616211], [10.543014526367188, 34.55062484741211], [10.004497528076172, 34.2933349609375], [10.081672668457031, 34.22901916503906], [10.005777359008789, 33.90746307373047], [10.23681354522705, 33.71455001831055], [10.544031143188477, 33.71455001831055], [10.697741508483887, 33.52165222167969], [11.081541061401367, 33.5859489440918], [11.157825469970703, 33.20018768310547], [11.464441299438477, 33.20018768310547], [12.228955268859863, 32.81447219848633], [12.612099647521973, 32.878753662109375], [12.534722328186035, 32.75019073486328], [12.840824127197266, 32.75019073486328], [12.841785430908203, 32.878753662109375], [13.301749229431152, 32.94303894042969], [13.453653335571289, 32.81447219848633], [13.760527610778809, 32.878753662109375], [13.759129524230957, 32.75019073486328], [14.065231323242188, 32.75019073486328], [14.444439888000488, 32.493072509765625], [14.674704551696777, 32.557350158691406], [14.749334335327148, 32.428794860839844], [15.055076599121094, 32.428794860839844], [15.282304763793945, 32.30024337768555], [15.424593925476074, 31.65752601623535], [15.575982093811035, 31.593257904052734], [15.64897632598877, 31.40045166015625], [16.178552627563477, 31.20764923095703], [16.8635196685791, 31.20764923095703], [17.846824645996094, 30.950578689575195], [18.222288131713867, 30.757776260375977], [18.592470169067383, 30.372163772583008], [18.896053314208984, 30.372163772583008], [18.968589782714844, 30.243623733520508], [19.655010223388672, 30.372163772583008], [19.964311599731445, 30.564971923828125], [19.968164443969727, 30.69350814819336], [20.202085494995117, 30.886310577392578], [20.13410186767578, 31.143381118774414], [20.214296340942383, 31.271915435791016], [19.996076583862305, 31.593257904052734], [20.089075088500977, 32.107421875], [20.016965866088867, 32.23596954345703], [20.246112823486328, 32.23596954345703], [20.33134651184082, 32.493072509765625], [20.481992721557617, 32.428794860839844], [20.562992095947266, 32.557350158691406], [20.71593475341797, 32.557350158691406], [20.644094467163086, 32.685909271240234], [20.87124252319336, 32.62162780761719], [21.108016967773438, 32.81447219848633], [21.41167449951172, 32.75019073486328], [21.87872886657715, 32.94303894042969], [23.089431762695312, 32.62162780761719], [23.077939987182617, 32.36451721191406], [23.29851722717285, 32.171695709228516], [23.680339813232422, 32.171695709228516], [24.129365921020508, 31.978878021240234], [24.892484664916992, 31.978878021240234], [25.11168098449707, 31.78606605529785], [25.102048873901367, 31.593257904052734], [25.248035430908203, 31.464719772338867], [26.847702026367188, 31.464719772338867], [27.297456741333008, 31.336183547973633], [27.514896392822266, 31.143381118774414], [28.496395111083984, 31.014846801757812], [28.865032196044922, 30.822044372558594], [29.3970890045166, 30.822044372558594], [29.485143661499023, 31.014846801757812], [29.633193969726562, 30.950578689575195], [29.86956024169922, 31.079113006591797], [29.8017635345459, 31.20764923095703], [29.882049560546875, 31.271915435791016], [30.33879280090332, 31.271915435791016], [30.271244049072266, 31.40045166015625], [30.351730346679688, 31.464719772338867], [30.80877685546875, 31.464719772338867], [30.965608596801758, 31.528987884521484], [30.974620819091797, 31.65752601623535], [31.203296661376953, 31.65752601623535], [31.117990493774414, 31.528987884521484], [31.265825271606445, 31.464719772338867], [31.875221252441406, 31.464719772338867], [31.780553817749023, 31.20764923095703], [31.93739891052246, 31.271915435791016], [31.999635696411133, 31.079113006591797], [32.303932189941406, 31.079113006591797], [32.23719787597656, 31.20764923095703], [32.38941192626953, 31.20764923095703], [32.53215408325195, 31.079113006591797], [32.76515197753906, 31.143381118774414], [32.8316764831543, 31.014846801757812], [33.74934005737305, 31.079113006591797], [34.2972412109375, 31.271915435791016], [34.30759811401367, 31.40045166015625], [34.63344955444336, 31.65752601623535], [34.57329559326172, 31.8503360748291], [34.81304168701172, 31.978878021240234], [34.76983642578125, 32.36451721191406], [35.021759033203125, 32.62162780761719], [35.05632781982422, 33.00732421875], [35.21538543701172, 33.07160949707031], [35.39840316772461, 33.393062591552734], [35.34577560424805, 33.65024948120117], [35.49934768676758, 33.65024948120117], [35.4470100402832, 33.90746307373047], [35.68381118774414, 33.971771240234375], [35.64447784423828, 34.3576545715332], [35.79212951660156, 34.2933349609375], [36.048770904541016, 34.55062484741211], [36.0682373046875, 34.743614196777344], [35.92698669433594, 34.87228775024414], [35.959747314453125, 35.194007873535156], [35.88248825073242, 35.194007873535156], [35.99294662475586, 35.51579284667969], [35.84488296508789, 35.58015823364258], [35.990074157714844, 36.2239875793457], [35.84174346923828, 36.28839111328125], [36.26490020751953, 36.61045455932617], [36.28622817993164, 36.80373764038086], [36.144901275634766, 36.932613372802734], [35.833587646484375, 36.932613372802734], [35.487709045410156, 36.61045455932617], [35.332271575927734, 36.61045455932617], [35.11265563964844, 36.73930740356445], [34.95038986206055, 36.67487716674805], [34.892860412597656, 36.8681755065918], [34.737247467041016, 36.8681755065918], [34.65944290161133, 36.8681755065918], [34.77800369262695, 37.254878997802734], [35.03270721435547, 37.44829177856445], [35.351837158203125, 37.51277160644531], [35.429866790771484, 37.51277160644531], [35.82001495361328, 37.51277160644531], [36.154266357421875, 37.706241607666016], [36.45698547363281, 38.28691864013672], [36.60584259033203, 38.22237777709961], [36.79380416870117, 38.48057174682617], [37.13145446777344, 38.67427444458008], [37.06919479370117, 38.80344009399414], [37.312904357910156, 38.8680305480957], [37.43308639526367, 39.19107437133789], [37.677528381347656, 39.25570297241211], [38.1500358581543, 39.8376350402832], [38.15900421142578, 39.90232849121094], [38.298851013183594, 39.77294921875], [38.841835021972656, 39.70827102661133], [39.589115142822266, 39.9670295715332], [40.57756042480469, 40.74397277832031], [40.7360954284668, 40.74397277832031], [41.534793853759766, 41.26253128051758], [42.25017166137695, 41.26253128051758], [42.36305618286133, 41.45711898803711], [42.62437438964844, 41.586883544921875], [42.86325454711914, 41.586883544921875], [43.340179443359375, 41.132843017578125], [43.97562789916992, 41.132843017578125], [44.237335205078125, 41.26253128051758], [44.3523063659668, 41.45711898803711], [44.86604690551758, 41.65177917480469], [45.07451629638672, 41.911441802978516], [45.313819885253906, 41.911441802978516], [45.616233825683594, 42.236209869384766], [45.75059127807617, 42.10627746582031], [46.29668426513672, 42.041324615478516], [46.350799560546875, 41.911441802978516], [46.7366943359375, 41.84651184082031], [47.27063751220703, 41.32738494873047], [47.5628776550293, 41.19768524169922], [47.97319793701172, 41.26253128051758], [48.000728607177734, 41.00318908691406], [48.13364791870117, 40.873565673828125], [48.08251190185547, 40.614410400390625], [48.0032958984375, 40.614410400390625], [48.00716018676758, 40.225894927978516], [48.49408721923828, 40.29063034057617], [48.71622085571289, 40.614410400390625], [48.781333923339844, 40.93837356567383], [48.64888381958008, 41.06801223754883], [48.67594909667969, 41.586883544921875], [48.755577087402344, 41.586883544921875], [49.50836181640625, 40.614410400390625], [50.04951477050781, 40.54964065551758], [50.2603759765625, 40.42012023925781], [49.6933479309082, 40.355369567871094], [49.50919723510742, 40.225894927978516], [49.26664352416992, 39.38497543334961], [49.151405334472656, 39.19107437133789], [48.994110107421875, 39.19107437133789], [48.91546630859375, 39.19107437133789], [48.673282623291016, 39.57893371582031], [48.44904327392578, 39.64360046386719], [48.23134994506836, 39.320335388183594], [48.25099563598633, 38.997230529785156], [47.99210739135742, 38.8680305480957], [47.99068832397461, 38.416015625], [48.191890716552734, 38.22237777709961], [48.39375305175781, 37.5772590637207], [48.852516174316406, 37.06150817871094], [49.14228820800781, 36.932613372802734], [49.18772506713867, 36.73930740356445], [50.27750015258789, 36.28839111328125], [50.467002868652344, 36.03080368041992], [51.087215423583984, 36.03080368041992], [51.82918167114258, 35.837650299072266], [52.02837371826172, 35.644527435302734], [52.33797836303711, 35.644527435302734], [52.70390701293945, 35.9664192199707], [53.20351791381836, 36.15959167480469], [54.30137634277344, 36.2239875793457], [54.88085174560547, 36.417205810546875], [55.15068817138672, 36.61045455932617], [55.18791198730469, 36.80373764038086], [55.446407318115234, 36.932613372802734], [55.48442459106445, 37.12596130371094], [55.0296745300293, 37.1904182434082], [54.83383560180664, 37.38381576538086], [54.041534423828125, 37.3193473815918], [53.96357345581055, 37.3193473815918], [53.90790557861328, 37.835243225097656], [53.82976150512695, 37.835243225097656], [53.98678207397461, 38.997230529785156], [53.5175895690918, 39.38497543334961], [53.13750457763672, 39.449623107910156], [53.54492950439453, 39.51427459716797], [53.498451232910156, 40.031734466552734], [52.72255325317383, 40.0964469909668], [52.71352767944336, 40.42012023925781], [52.792659759521484, 40.42012023925781], [52.89295959472656, 40.873565673828125], [52.97228240966797, 40.873565673828125], [52.943321228027344, 40.74397277832031], [53.33966064453125, 40.74397277832031], [53.448211669921875, 40.873565673828125], [53.40435791015625, 40.6791877746582], [54.38508224487305, 40.80876541137695], [56.82743835449219, 40.74397277832031], [57.464874267578125, 41.39224624633789], [58.256591796875, 43.472347259521484], [58.41754150390625, 43.472347259521484], [58.63294982910156, 43.6678352355957], [59.1235237121582, 43.407203674316406], [60.367706298828125, 43.53750228881836], [60.39189529418945, 43.342071533203125], [60.84203338623047, 42.95146560668945], [60.823394775390625, 42.88639831542969], [61.008094787597656, 42.691246032714844], [61.16832733154297, 42.691246032714844], [61.39565658569336, 42.36617660522461]]], [[[-6.348800659179688, 29.857990264892578], [-6.345306396484375, 29.79371452331543], [-6.421061992645264, 29.79371452331543], [-6.424571514129639, 29.857990264892578], [-6.348800659179688, 29.857990264892578]]], [[[-5.973376750946045, 29.922264099121094], [-5.897590160369873, 29.922264099121094], [-5.894174575805664, 29.857990264892578], [-5.969945430755615, 29.857990264892578], [-5.973376750946045, 29.922264099121094]]], [[[37.06108474731445, 38.738853454589844], [37.053001403808594, 38.67427444458008], [36.974552154541016, 38.67427444458008], [36.982608795166016, 38.738853454589844], [37.06108474731445, 38.738853454589844]]], [[[3.116764783859253, 41.911441802978516], [2.572504997253418, 41.586883544921875], [2.333626985549927, 41.586883544921875], [2.106574535369873, 41.32738494873047], [1.238392949104309, 41.19768524169922], [0.695793092250824, 40.93837356567383], [0.709256291389465, 40.6791877746582], [0.474957317113876, 40.614410400390625], [0.247769102454185, 40.42012023925781], [0.182543575763702, 40.16116714477539], [-0.201878547668457, 39.9670295715332], [-0.345421016216278, 39.70827102661133], [-0.313707679510117, 39.1264533996582], [0.099359586834908, 38.738853454589844], [-0.660861134529114, 38.28691864013672], [-0.803495347499847, 38.028785705566406], [-0.704753637313843, 37.641746520996094], [-1.708719491958618, 37.44829177856445], [-1.623468399047852, 37.3193473815918], [-1.857354998588562, 37.3193473815918], [-2.061630010604858, 36.80373764038086], [-2.532132625579834, 36.8681755065918], [-2.680080890655518, 36.73930740356445], [-4.468626022338867, 36.73930740356445], [-4.688807487487793, 36.5460319519043], [-5.22819709777832, 36.48161697387695], [-5.287947177886963, 36.2239875793457], [-5.51620626449585, 36.15959167480469], [-5.584750652313232, 36.03080368041992], [-5.831079006195068, 36.2239875793457], [-6.063849925994873, 36.2239875793457], [-6.330093860626221, 36.67487716674805], [-6.349542140960693, 36.932613372802734], [-6.587993621826172, 36.9970588684082], [-6.84182596206665, 37.254878997802734], [-7.465344429016113, 37.254878997802734], [-7.454815864562988, 37.12596130371094], [-7.677903652191162, 36.9970588684082], [-8.067157745361328, 36.9970588684082], [-8.311661720275879, 37.12596130371094], [-8.70113754272461, 37.12596130371094], [-9.00136661529541, 36.9970588684082], [-8.896896362304688, 37.5772590637207], [-8.818843841552734, 37.5772590637207], [-8.822718620300293, 38.48057174682617], [-9.20852279663086, 38.416015625], [-9.23299789428711, 38.67427444458008], [-9.38370418548584, 38.60969924926758], [-9.553065299987793, 38.738853454589844], [-9.571974754333496, 38.93262481689453], [-9.42748737335205, 39.06184005737305], [-9.387048721313477, 39.449623107910156], [-9.157164573669434, 39.51427459716797], [-9.103915214538574, 39.77294921875], [-9.025042533874512, 39.77294921875], [-8.925222396850586, 40.355369567871094], [-8.846114158630371, 40.355369567871094], [-8.872282981872559, 40.614410400390625], [-8.72695255279541, 40.74397277832031], [-8.886794090270996, 41.521995544433594], [-8.893636703491211, 41.586883544921875], [-8.422574043273926, 41.65177917480469], [-8.436017036437988, 41.781593322753906], [-7.326419830322266, 41.84651184082031], [-7.179584980010986, 41.97637939453125], [-6.61488151550293, 41.911441802978516], [-6.387685298919678, 42.041324615478516], [-4.956400394439697, 42.10627746582031], [-4.019167900085449, 42.36617660522461], [-3.714848279953003, 42.56119155883789], [-2.999286651611328, 42.62621307373047], [-2.198425054550171, 42.62621307373047], [-2.127629995346069, 42.75628662109375], [-1.726904630661011, 42.75628662109375], [0.716722190380096, 42.041324615478516], [1.03602147102356, 42.041324615478516], [1.425328612327576, 42.236209869384766], [1.482222676277161, 42.691246032714844], [1.789806246757507, 42.95146560668945], [1.950274229049683, 42.95146560668945], [2.095041275024414, 43.276947021484375], [2.633847713470459, 43.79821014404297], [2.795101165771484, 43.79821014404297], [3.025451898574829, 44.05907440185547], [3.429201602935791, 44.05907440185547], [3.814627170562744, 44.5159797668457], [4.057530879974365, 44.5159797668457], [4.138498306274414, 44.5159797668457], [4.14101505279541, 44.45067596435547], [4.221951484680176, 44.45067596435547], [4.224428653717041, 44.38538360595703], [4.305334091186523, 44.38538360595703], [4.386239051818848, 44.38538360595703], [4.635873794555664, 44.18956756591797], [4.236700534820557, 44.05907440185547], [4.092497825622559, 43.6026611328125], [4.011962413787842, 43.6026611328125], [3.536692380905151, 43.407203674316406], [3.45624828338623, 43.407203674316406], [2.984907388687134, 43.146724700927734], [3.009923458099365, 42.56119155883789], [3.178062200546265, 42.36617660522461], [3.116764783859253, 41.911441802978516]]], [[[58.97935485839844, 20.40767478942871], [58.81501007080078, 20.214815139770508], [58.666770935058594, 20.214815139770508], [58.76761245727539, 20.53624725341797], [58.772953033447266, 20.60053253173828], [59.00082778930664, 20.664819717407227], [58.97935485839844, 20.40767478942871]]], [[[50.460208892822266, 26.257951736450195], [50.68524169921875, 26.257951736450195], [50.672935485839844, 26.129364013671875], [50.666831970214844, 26.06507110595703], [50.64872360229492, 25.8721923828125], [50.42986297607422, 25.936485290527344], [50.460208892822266, 26.257951736450195]]]]}}]}